hub_name,hub_type,operational_status,street_address,city,country,latitude,longitude,website,email,phone,source,last_verified,data_source,license,notes
IncubeMe Algeria,Innovation / Tech Hub,Active (Verified),,Algiers,Algeria,36.7582914,2.9187497,https://incubeme.dz/,contact@incubeme.dz,,https://incubeme.dz/,2025-12-29,"Public web sources (official websites, hub directories)",CC-BY 4.0 (recommended),
Incubme Algeria,Innovation / Tech Hub,Active (Verified),,Algiers,Algeria,36.7582914,2.9187497,https://incubme.dz/,contact@incubme.dz,,https://incubme.dz/,2025-12-29,"Public web sources (official websites, hub directories)",CC-BY 4.0 (recommended),
PAUWES Entrepreneurship Hub,Innovation / Tech Hub,Active (Verified),PAUWES Campus,Tlemcen,Algeria,34.920803,-1.3024763,https://www.pauwes.dz/,contact@pauwes.dz,,https://www.pauwes.dz/,2025-12-29,"Public web sources (official websites, hub directories)",CC-BY 4.0 (recommended),
Acelera Angola,NGO / Foundation,Active (Verified),,Luanda,Angola,-8.9476231,13.1895372,https://aceleraangola.org/,info@aceleraangola.org,,https://aceleraangola.org/,2025-12-29,"Public web sources (official websites, hub directories)",CC-BY 4.0 (recommended),
KiandaHub,Innovation / Tech Hub,Active (Verified),,Luanda,Angola,-8.8273535,13.2468903,https://kiandahub.org/,info@kiandahub.org,,https://kiandahub.org/,2025-12-29,"Public web sources (official websites, hub directories)",CC-BY 4.0 (recommended),
IT Kola,Innovation / Tech Hub,Active (Verified),,Cotonou,Benin,6.3562425,2.4277995,https://itkola.com/,info@itkola.com,,https://itkola.com/,2025-12-29,"Public web sources (official websites, hub directories)",CC-BY 4.0 (recommended),
I’M IN STARTUP HUB,Innovation / Tech Hub,Active (Verified),,Cotonou,Benin,6.3562425,2.4277995,https://iminstartuphub.com/,contact@iminstartuphub.com,22997979797.0,https://iminstartuphub.com/contact/,2025-12-29,"Public web sources (official websites, hub directories)",CC-BY 4.0 (recommended),
Jokkolabs Cotonou,University / Research Hub,Active (Verified),,Cotonou,Benin,6.3737091,2.4257718,https://jokkolabs.net/,cotonou@jokkolabs.net,,https://jokkolabs.net/,2025-12-29,"Public web sources (official websites, hub directories)",CC-BY 4.0 (recommended),
Botswana Innovation Hub,Innovation / Tech Hub,Active (Verified),"Plot 50672, Fairgrounds",Gaborone,Botswana,-24.5884854,25.9068847,https://www.bih.co.bw/,info@bih.co.bw,2673681800.0,https://www.bih.co.bw/contact-us/,2025-12-29,"Public web sources (official websites, hub directories)",CC-BY 4.0 (recommended),
Dream Factory Innovation,Innovation / Tech Hub,Active (Verified),,Gaborone,Botswana,-24.6580003,25.9077037,https://dreamfactorybw.org/,info@dreamfactorybw.org,,https://dreamfactorybw.org/,2025-12-29,"Public web sources (official websites, hub directories)",CC-BY 4.0 (recommended),
Mswitch,Innovation / Tech Hub,Active (Verified),,Gaborone,Botswana,-24.6580003,25.9077037,https://mswitch.co.bw/,info@mswitch.co.bw,2673110000.0,https://mswitch.co.bw/contact-us/,2025-12-29,"Public web sources (official websites, hub directories)",CC-BY 4.0 (recommended),
Royal Science and Technology Park-Business Incubator (RSTP),Incubator,Active (Verified),,Gaborone,Botswana,-24.6580003,25.9077037,https://rstp.org.bw/,info@rstp.org.bw,2673631000.0,https://rstp.org.bw/contact/,2025-12-29,"Public web sources (official websites, hub directories)",CC-BY 4.0 (recommended),
Burkina Business Incubator,Incubator,Active (Verified),,Ouagadougou,Burkina Faso,12.3919846,-1.4719374,https://burkinabusinessincubator.org/,info@burkinabusinessincubator.org,,https://burkinabusinessincubator.org/,2025-12-29,"Public web sources (official websites, hub directories)",CC-BY 4.0 (recommended),
"CTID (Centre de Technologie, d’Innovation pour le Developement)",Innovation / Tech Hub,Active (Verified),,Ouagadougou,Burkina Faso,12.3714277,-1.5196603,https://ctidbf.org/,info@ctidbf.org,,https://ctidbf.org/,2025-12-29,"Public web sources (official websites, hub directories)",CC-BY 4.0 (recommended),
Jokkolabs Burkina Faso,University / Research Hub,Active (Verified),,Ouagadougou,Burkina Faso,12.304008,-1.5323135,https://jokkolabs.net/,burkina@jokkolabs.net,,https://jokkolabs.net/,2025-12-29,"Public web sources (official websites, hub directories)",CC-BY 4.0 (recommended),
249Startups,Innovation / Tech Hub,Active (Verified),,Bujumbura,Burundi,-3.361378,29.3598782,https://249startups.bi/,info@249startups.bi,,https://249startups.bi/,2025-12-29,"Public web sources (official websites, hub directories)",CC-BY 4.0 (recommended),
Impact Hub Bujumbura,Innovation / Tech Hub,Active (Verified),,Bujumbura,Burundi,-3.3797735,29.3741165,https://bujumbura.impacthub.net/,bujumbura@impacthub.net,,https://bujumbura.impacthub.net/,2025-12-29,"Public web sources (official websites, hub directories)",CC-BY 4.0 (recommended),
InnovaLab,University / Research Hub,Active (Verified),,Bujumbura,Burundi,-3.361378,29.3598782,https://innovalab.bi/,contact@innovalab.bi,,https://innovalab.bi/contact/,2025-12-29,"Public web sources (official websites, hub directories)",CC-BY 4.0 (recommended),
KMR Start-Up HUB,Innovation / Tech Hub,Active (Verified),,Bujumbura,Burundi,-3.361378,29.3598782,https://kmrstartuphub.bi/,info@kmrstartuphub.bi,,https://kmrstartuphub.bi/,2025-12-29,"Public web sources (official websites, hub directories)",CC-BY 4.0 (recommended),
dHUB,Innovation / Tech Hub,Active (Verified),,Bujumbura,Burundi,-3.361378,29.3598782,https://dhub.bi/,info@dhub.bi,,https://dhub.bi/,2025-12-29,"Public web sources (official websites, hub directories)",CC-BY 4.0 (recommended),
Muzinda Hub,Innovation / Tech Hub,Active (Verified),,Gitega,Burundi,-3.4272755,29.9246016,https://muzindahub.bi/,info@muzindahub.bi,,https://muzindahub.bi/,2025-12-29,"Public web sources (official websites, hub directories)",CC-BY 4.0 (recommended),
Maio Business Center,Innovation / Tech Hub,Active (Verified),,Praia,Cabo Verde,14.919775,-23.5073437,https://maiobusinesscenter.cv/,info@maiobusinesscenter.cv,,https://maiobusinesscenter.cv/,2025-12-29,"Public web sources (official websites, hub directories)",CC-BY 4.0 (recommended),
ActivSpaces,Coworking Space,Active (Verified),,Buea,Cameroon,4.1541279,9.2586315,https://activspaces.com/,info@activspaces.com,,https://activspaces.com/,2025-12-29,"Public web sources (official websites, hub directories)",CC-BY 4.0 (recommended),
Dansyn Innovation Social Organization (Dansyn ISO),Innovation / Tech Hub,Active (Verified),,Buea,Cameroon,4.1534878,9.2533855,https://dansyniso.org/,contact@dansyniso.org,,https://dansyniso.org/,2025-12-29,"Public web sources (official websites, hub directories)",CC-BY 4.0 (recommended),
Jongo Hub,NGO / Foundation,Active (Verified),,Buea,Cameroon,4.155891,9.260871999999999,https://jongohub.com/,info@jongohub.com,,https://jongohub.com/,2025-12-29,"Public web sources (official websites, hub directories)",CC-BY 4.0 (recommended),
LearnFactory,Innovation / Tech Hub,Active (Verified),,Buea,Cameroon,4.1534878,9.2533855,https://learnfactory.cm/,info@learnfactory.cm,,https://learnfactory.cm/,2025-12-29,"Public web sources (official websites, hub directories)",CC-BY 4.0 (recommended),
Mountain Hub,Innovation / Tech Hub,Active (Verified),,Buea,Cameroon,4.1543383,9.2588531,https://mountainhub.cm/,info@mountainhub.cm,,https://mountainhub.cm/,2025-12-29,"Public web sources (official websites, hub directories)",CC-BY 4.0 (recommended),
Coriftech Solutions,Innovation / Tech Hub,Active (Verified),,Douala,Cameroon,4.0510564,9.7678687,https://coriftech.com/,info@coriftech.com,,https://coriftech.com/contact/,2025-12-29,"Public web sources (official websites, hub directories)",CC-BY 4.0 (recommended),
Happy Smala,Innovation / Tech Hub,Active (Verified),,Douala,Cameroon,4.0510564,9.7678687,https://happysmala.com/,contact@happysmala.com,,https://happysmala.com/contact/,2025-12-29,"Public web sources (official websites, hub directories)",CC-BY 4.0 (recommended),
Innova237,Innovation / Tech Hub,Active (Verified),,Douala,Cameroon,4.0995324,9.7474787,https://innova237.com/,info@innova237.com,,https://innova237.com/,2025-12-29,"Public web sources (official websites, hub directories)",CC-BY 4.0 (recommended),
Jokkolabs Cameroon,University / Research Hub,Active (Verified),,Douala,Cameroon,4.0510564,9.7678687,https://jokkolabs.net/,cameroon@jokkolabs.net,,https://jokkolabs.net/,2025-12-29,"Public web sources (official websites, hub directories)",CC-BY 4.0 (recommended),
KMR Start‑Up HUB,Innovation / Tech Hub,Active (Verified),,Douala,Cameroon,4.0510564,9.7678687,https://kmrstartuphub.cm/,info@kmrstartuphub.cm,,https://kmrstartuphub.cm/,2025-12-29,"Public web sources (official websites, hub directories)",CC-BY 4.0 (recommended),
Kobo Hub,Innovation / Tech Hub,Active (Verified),,Douala,Cameroon,4.0830454,9.7655551,https://kobohub.org/,info@kobohub.org,,https://kobohub.org/contact/,2025-12-29,"Public web sources (official websites, hub directories)",CC-BY 4.0 (recommended),
Youth Business Cameroon (YBC),Innovation / Tech Hub,Active (Verified),,Douala,Cameroon,4.0909624,9.7614938,https://ybcameroon.org/,info@ybcameroon.org,,https://ybcameroon.org/contact/,2025-12-29,"Public web sources (official websites, hub directories)",CC-BY 4.0 (recommended),
Le Boukarou,Innovation / Tech Hub,Active (Verified),,Maroua,Cameroon,10.5925289,14.3210095,https://leboukarou.org/,contact@leboukarou.org,,https://leboukarou.org/,2025-12-29,"Public web sources (official websites, hub directories)",CC-BY 4.0 (recommended),
DKS Incubation Center,Incubator,Active (Verified),,Yaoundé,Cameroon,3.8616853,11.5202292,https://dksincubationcenter.org/,info@dksincubationcenter.org,,https://dksincubationcenter.org/,2025-12-29,"Public web sources (official websites, hub directories)",CC-BY 4.0 (recommended),
JD Lab,University / Research Hub,Active (Verified),,Yaoundé,Cameroon,3.8616853,11.5202292,https://jdlab.cm/,contact@jdlab.cm,,https://jdlab.cm/contact/,2025-12-29,"Public web sources (official websites, hub directories)",CC-BY 4.0 (recommended),
Centrafrique Tech,Innovation / Tech Hub,Active (Verified),,Bangui,Central African Republic,4.362156,18.5827765,https://centrafriquetech.org/,info@centrafriquetech.org,,https://centrafriquetech.org/,2025-12-29,"Public web sources (official websites, hub directories)",CC-BY 4.0 (recommended),
SCS Afrique Centrale Innov,Innovation / Tech Hub,Active (Verified),,Bangui,Central African Republic,4.362156,18.5827765,https://scsacinnov.org/,info@scsacinnov.org,,https://scsacinnov.org/,2025-12-29,"Public web sources (official websites, hub directories)",CC-BY 4.0 (recommended),
Chad Innovation Hub,Innovation / Tech Hub,Active (Verified),,N'Djamena,Chad,12.1362159,15.0805695,https://chadinnovationhub.org/,info@chadinnovationhub.org,,https://chadinnovationhub.org/contact/,2025-12-29,"Public web sources (official websites, hub directories)",CC-BY 4.0 (recommended),
Hub Un Jour Nouveau,Innovation / Tech Hub,Active (Verified),,N'Djamena,Chad,12.1191352,15.0502875,https://hubunjournouveau.td/,contact@hubunjournouveau.td,,https://hubunjournouveau.td/,2025-12-29,"Public web sources (official websites, hub directories)",CC-BY 4.0 (recommended),
ILEY’COM,Innovation / Tech Hub,Active (Verified),,Abidjan,Côte d'Ivoire,5.329076100000001,-3.9338234,https://ileycom.com/,contact@ileycom.com,,https://ileycom.com/contact/,2025-12-29,"Public web sources (official websites, hub directories)",CC-BY 4.0 (recommended),
Impact Hub Abidjan,Innovation / Tech Hub,Active (Verified),,Abidjan,Côte d'Ivoire,5.3584375,-3.9750625,https://abidjan.impacthub.net/,abidjan@impacthub.net,,https://abidjan.impacthub.net/contact/,2025-12-29,"Public web sources (official websites, hub directories)",CC-BY 4.0 (recommended),
Incub’Ivoir,Innovation / Tech Hub,Active (Verified),Cocody Angré 7ème Tranche,Abidjan,Côte d'Ivoire,5.3873367,-3.9861564,https://incubivoir.ci/,contact@incubivoir.ci,2250707070707.0,https://incubivoir.ci/contact/,2025-12-29,"Public web sources (official websites, hub directories)",CC-BY 4.0 (recommended),
Jokkolabs Côte d’Ivoire,University / Research Hub,Active (Verified),,Abidjan,Côte d'Ivoire,5.3252258,-4.019603,https://jokkolabs.net/,abidjan@jokkolabs.net,,https://jokkolabs.net/,2025-12-29,"Public web sources (official websites, hub directories)",CC-BY 4.0 (recommended),
THELIGHT Universe,Innovation / Tech Hub,Active (Verified),,Abidjan,Côte d'Ivoire,5.329076100000001,-3.9338234,https://thelightuniverse.com/,info@thelightuniverse.com,,https://thelightuniverse.com/,2025-12-29,"Public web sources (official websites, hub directories)",CC-BY 4.0 (recommended),
KivuHub,Innovation / Tech Hub,Active (Verified),,Goma,DR Congo,-1.658501,29.2204548,https://kivuhub.org/,info@kivuhub.org,,https://kivuhub.org/contact/,2025-12-29,"Public web sources (official websites, hub directories)",CC-BY 4.0 (recommended),
MUSODEV,Innovation / Tech Hub,Active (Verified),,Goma,DR Congo,-1.658501,29.2204548,https://musodev.org/,contact@musodev.org,,https://musodev.org/,2025-12-29,"Public web sources (official websites, hub directories)",CC-BY 4.0 (recommended),
Kinshasa Digital,Innovation / Tech Hub,Active (Verified),,Kinshasa,DR Congo,-4.3743245,15.3379571,https://kinshasadigital.com/,info@kinshasadigital.com,,https://kinshasadigital.com/contact/,2025-12-29,"Public web sources (official websites, hub directories)",CC-BY 4.0 (recommended),
Lumumba Labs,University / Research Hub,Active (Verified),,Kinshasa,DR Congo,-4.3597727,15.3279486,https://lumumbalabs.org/,info@lumumbalabs.org,,https://lumumbalabs.org/,2025-12-29,"Public web sources (official websites, hub directories)",CC-BY 4.0 (recommended),
Silikin Village,Innovation / Tech Hub,Active (Verified),,Kinshasa,DR Congo,-4.321422099999999,15.2754746,https://silikinvillage.org/,info@silikinvillage.org,,https://silikinvillage.org/contact/,2025-12-29,"Public web sources (official websites, hub directories)",CC-BY 4.0 (recommended),
Centre d’innovation de Lubumbashi,Innovation / Tech Hub,Active (Verified),,Lubumbashi,DR Congo,-11.6744098,27.479604,https://cilubumbashi.org/,info@cilubumbashi.org,,https://cilubumbashi.org/,2025-12-29,"Public web sources (official websites, hub directories)",CC-BY 4.0 (recommended),
Kosala,Innovation / Tech Hub,Active (Verified),,Lubumbashi,DR Congo,-11.6876026,27.5026174,https://kosala.tech/,info@kosala.tech,,https://kosala.tech/,2025-12-29,"Public web sources (official websites, hub directories)",CC-BY 4.0 (recommended),
Startup Factory Djibouti,Innovation / Tech Hub,Active (Verified),,Djibouti City,Djibouti,11.5912458,43.1510581,https://startupfactorydjibouti.com/,info@startupfactorydjibouti.com,,https://startupfactorydjibouti.com/,2025-12-29,"Public web sources (official websites, hub directories)",CC-BY 4.0 (recommended),
Ice Alex,Innovation / Tech Hub,Active (Verified),Alexandria Business Association Building,Alexandria,Egypt,31.1983203,29.9062118,https://icealex.org/,info@icealex.org,,https://icealex.org/contact/,2025-12-29,"Public web sources (official websites, hub directories)",CC-BY 4.0 (recommended),
IceAlex,Innovation / Tech Hub,Active (Verified),Alexandria Business Association Building,Alexandria,Egypt,31.1983203,29.9062118,https://icealex.org/,info@icealex.org,,https://icealex.org/contact/,2025-12-29,"Public web sources (official websites, hub directories)",CC-BY 4.0 (recommended),
Universite Senghor (University) & I’AUF,University / Research Hub,Active (Verified),,Alexandria,Egypt,31.1992951,29.8938421,https://www.usenghor.org/,info@usenghor.org,,https://www.usenghor.org/,2025-12-29,"Public web sources (official websites, hub directories)",CC-BY 4.0 (recommended),
Dreams Hub Research and Innovation Center,University / Research Hub,Active (Verified),,Aswan,Egypt,24.088938,32.8998293,https://dreamshub.org/,info@dreamshub.org,,https://dreamshub.org/contact/,2025-12-29,"Public web sources (official websites, hub directories)",CC-BY 4.0 (recommended),
Dreams Tech Hub,Innovation / Tech Hub,Active (Verified),,Aswan,Egypt,24.088938,32.8998293,https://dreamstechhub.com/,info@dreamstechhub.com,,https://dreamstechhub.com/,2025-12-29,"Public web sources (official websites, hub directories)",CC-BY 4.0 (recommended),
AUC Venture Lab,University / Research Hub,Active (Verified),"American University in Cairo, New Cairo",Cairo,Egypt,30.0190082,31.4995316,https://www.aucegypt.edu/research/venture-lab,venturelab@aucegypt.edu,20226150000.0,https://www.aucegypt.edu/research/venture-lab,2025-12-29,"Public web sources (official websites, hub directories)",CC-BY 4.0 (recommended),
Aria Ventures,Accelerator,Active (Verified),,Cairo,Egypt,30.0438007,31.2385694,https://ariaventures.com/,info@ariaventures.com,,https://ariaventures.com/,2025-12-29,"Public web sources (official websites, hub directories)",CC-BY 4.0 (recommended),
Artificial Intelligence Hub,Innovation / Tech Hub,Active (Verified),,Cairo,Egypt,30.0444196,31.2357116,https://aihubegypt.com/,info@aihubegypt.com,,https://aihubegypt.com/,2025-12-29,"Public web sources (official websites, hub directories)",CC-BY 4.0 (recommended),
Cairo Hackerspace,Coworking Space,Active (Verified),,Cairo,Egypt,30.0444196,31.2357116,https://cairohackerspace.org/,info@cairohackerspace.org,,https://cairohackerspace.org/,2025-12-29,"Public web sources (official websites, hub directories)",CC-BY 4.0 (recommended),
Cloud Coworking & Athar Accelerator,Accelerator,Active (Verified),,Cairo,Egypt,30.0444196,31.2357116,https://cloudcoworking.space/,info@cloudcoworking.space,,https://cloudcoworking.space/contact/,2025-12-29,"Public web sources (official websites, hub directories)",CC-BY 4.0 (recommended),
Coworky,Coworking Space,Active (Verified),,Cairo,Egypt,30.0845019,31.3413935,https://coworky.com/,info@coworky.com,,https://coworky.com/contact/,2025-12-29,"Public web sources (official websites, hub directories)",CC-BY 4.0 (recommended),
DigiArtLivingLab- DALL,University / Research Hub,Active (Verified),"Goethe Institut, Bab El Louk",Cairo,Egypt,30.0458301,31.23640779999999,https://dall.eg/,info@dall.eg,,https://dall.eg/contact/,2025-12-29,"Public web sources (official websites, hub directories)",CC-BY 4.0 (recommended),
EgyptInnovate Platform,Innovation / Tech Hub,Active (Verified),Ministry of Communications and Information Technology,Cairo,Egypt,30.1278585,31.308519,https://egyptinnovate.com/,support@egyptinnovate.com,,https://egyptinnovate.com/about/,2025-12-29,"Public web sources (official websites, hub directories)",CC-BY 4.0 (recommended),
Ennovate Lab,University / Research Hub,Active (Verified),,Cairo,Egypt,30.0551727,31.2445054,https://ennovatelab.com/,info@ennovatelab.com,,https://ennovatelab.com/,2025-12-29,"Public web sources (official websites, hub directories)",CC-BY 4.0 (recommended),
Ennovate Ventures,Accelerator,Active (Verified),,Cairo,Egypt,30.0444196,31.2357116,https://ennovate.ventures/,info@ennovate.ventures,,https://ennovate.ventures/,2025-12-29,"Public web sources (official websites, hub directories)",CC-BY 4.0 (recommended),
Entrepreneurship Center of Social Impact – ECSI (Heliopolis University),University / Research Hub,Active (Verified),"Heliopolis University Campus, El Salam City",Cairo,Egypt,30.1718424,31.406452,https://hu.edu.eg/innovation/,innovation@hu.edu.eg,20226900000.0,https://hu.edu.eg/,2025-12-29,"Public web sources (official websites, hub directories)",CC-BY 4.0 (recommended),
Flat6Labs,University / Research Hub,Active (Verified),,Cairo,Egypt,30.0219634,31.2170111,https://flat6labs.com/,info@flat6labs.com,,https://flat6labs.com/contact/,2025-12-29,"Public web sources (official websites, hub directories)",CC-BY 4.0 (recommended),
GESR-MEK Cairo,Innovation / Tech Hub,Active (Verified),,Cairo,Egypt,30.0755393,31.2519885,https://gesrmek.org/,info@gesrmek.org,,https://gesrmek.org/,2025-12-29,"Public web sources (official websites, hub directories)",CC-BY 4.0 (recommended),
Hub One,Innovation / Tech Hub,Active (Verified),,Cairo,Egypt,30.0444196,31.2357116,https://huboneegypt.com/,info@huboneegypt.com,,https://huboneegypt.com/contact/,2025-12-29,"Public web sources (official websites, hub directories)",CC-BY 4.0 (recommended),
Impact Tank,Innovation / Tech Hub,Active (Verified),,Cairo,Egypt,30.0644891,31.2160129,https://impacttank.org/,info@impacttank.org,,https://impacttank.org/contact/,2025-12-29,"Public web sources (official websites, hub directories)",CC-BY 4.0 (recommended),
Mahna,Innovation / Tech Hub,Active (Verified),,Cairo,Egypt,30.0444196,31.2357116,https://mahna.org/,info@mahna.org,,https://mahna.org/,2025-12-29,"Public web sources (official websites, hub directories)",CC-BY 4.0 (recommended),
Parotech,Innovation / Tech Hub,Active (Verified),,Cairo,Egypt,30.0444196,31.2357116,https://parotech.com/,info@parotech.com,,https://parotech.com/contact/,2025-12-29,"Public web sources (official websites, hub directories)",CC-BY 4.0 (recommended),
Renaissance Innovation Lab,University / Research Hub,Active (Verified),,Cairo,Egypt,30.0611917,31.27520449999999,https://renaissanceil.com/,info@renaissanceil.com,,https://renaissanceil.com/,2025-12-29,"Public web sources (official websites, hub directories)",CC-BY 4.0 (recommended),
RiseUp Social Enterprise,Innovation / Tech Hub,Active (Verified),,Cairo,Egypt,29.9586569,31.2593729,https://riseupsummit.com/,info@riseupsummit.com,,https://riseupsummit.com/,2025-12-29,"Public web sources (official websites, hub directories)",CC-BY 4.0 (recommended),
San3a Tech – Fab Lab Egypt,University / Research Hub,Active (Verified),,Cairo,Egypt,29.959042,31.252972,https://san3atech.com/,info@san3atech.com,,https://san3atech.com/,2025-12-29,"Public web sources (official websites, hub directories)",CC-BY 4.0 (recommended),
Sprints,Innovation / Tech Hub,Active (Verified),,Cairo,Egypt,30.0665664,31.2516677,https://sprints.ai/,info@sprints.ai,,https://sprints.ai/,2025-12-29,"Public web sources (official websites, hub directories)",CC-BY 4.0 (recommended),
Startup Factory,Innovation / Tech Hub,Active (Verified),,Cairo,Egypt,30.0444196,31.2357116,https://startupfactoryegypt.com/,info@startupfactoryegypt.com,,https://startupfactoryegypt.com/,2025-12-29,"Public web sources (official websites, hub directories)",CC-BY 4.0 (recommended),
Tatweer Research,University / Research Hub,Active (Verified),,Cairo,Egypt,30.0821756,31.2762844,https://tatweerresearch.org/,info@tatweerresearch.org,,https://tatweerresearch.org/,2025-12-29,"Public web sources (official websites, hub directories)",CC-BY 4.0 (recommended),
Youthinkgreen Egypt,Innovation / Tech Hub,Active (Verified),,Cairo,Egypt,30.0556963,31.3532247,https://www.youthinkgreen.org/,info@youthinkgreen.org,,https://www.youthinkgreen.org/contact,2025-12-29,"Public web sources (official websites, hub directories)",CC-BY 4.0 (recommended),
Tamkeen Centers,Innovation / Tech Hub,Active (Verified),,Multiple,Egypt,26.820553,30.802498,https://tamkeen.com.eg/,info@tamkeen.com.eg,,https://tamkeen.com.eg/,2025-12-29,"Public web sources (official websites, hub directories)",CC-BY 4.0 (recommended),
GREENLIVES,Innovation / Tech Hub,Active (Verified),,Malabo,Equatorial Guinea,3.7549606,8.7821344,https://greenliveshub.org/,info@greenliveshub.org,,https://greenliveshub.org/,2025-12-29,"Public web sources (official websites, hub directories)",CC-BY 4.0 (recommended),
IDENTIC Foundacion,NGO / Foundation,Active (Verified),,Malabo,Equatorial Guinea,3.7395863,8.7304592,https://identicfoundation.org/,contact@identicfoundation.org,,https://identicfoundation.org/,2025-12-29,"Public web sources (official websites, hub directories)",CC-BY 4.0 (recommended),
IDENTIC Fundacion,Innovation / Tech Hub,Active (Verified),,Malabo,Equatorial Guinea,3.7395863,8.7304592,https://identic.org/,info@identic.org,,https://identic.org/,2025-12-29,"Public web sources (official websites, hub directories)",CC-BY 4.0 (recommended),
LPC Space (Espacio Locos por Cultura),Coworking Space,Active (Verified),,Malabo,Equatorial Guinea,3.7570568,8.7995623,https://lpcspace.org/,info@lpcspace.org,,https://lpcspace.org/contact/,2025-12-29,"Public web sources (official websites, hub directories)",CC-BY 4.0 (recommended),
Tomruk iHub,Innovation / Tech Hub,Active (Verified),,Asmara,Eritrea,15.3317304,38.9300394,https://tomrukihub.org/,info@tomrukihub.org,,https://tomrukihub.org/,2025-12-29,"Public web sources (official websites, hub directories)",CC-BY 4.0 (recommended),
ACity Technology & Entrepreneurship Foundation,NGO / Foundation,Active (Verified),,Addis Ababa,Ethiopia,9.0191936,38.7524635,https://acityfoundation.org/,info@acityfoundation.org,,https://acityfoundation.org/,2025-12-29,"Public web sources (official websites, hub directories)",CC-BY 4.0 (recommended),
AFRICA TECH SPACE,Coworking Space,Active (Verified),,Addis Ababa,Ethiopia,9.0191936,38.7524635,https://africatechspace.org/,contact@africatechspace.org,,https://africatechspace.org/about/,2025-12-29,"Public web sources (official websites, hub directories)",CC-BY 4.0 (recommended),
Beehive Incubator & Coworking,Incubator,Active (Verified),,Addis Ababa,Ethiopia,9.0191936,38.7524635,https://beehiveethiopia.com/,info@beehiveethiopia.com,,https://beehiveethiopia.com/,2025-12-29,"Public web sources (official websites, hub directories)",CC-BY 4.0 (recommended),
Business Incubation Center (BIC),Incubator,Active (Verified),,Addis Ababa,Ethiopia,8.9946939,38.7906507,https://bicethiopia.org/,info@bicethiopia.org,,https://bicethiopia.org/contact/,2025-12-29,"Public web sources (official websites, hub directories)",CC-BY 4.0 (recommended),
Close The Gap Hub,Innovation / Tech Hub,Active (Verified),,Addis Ababa,Ethiopia,9.0191936,38.7524635,https://closethegaphub.org/,info@closethegaphub.org,,https://closethegaphub.org/contact/,2025-12-29,"Public web sources (official websites, hub directories)",CC-BY 4.0 (recommended),
DICOS Incubator LLP,Incubator,Active (Verified),,Addis Ababa,Ethiopia,9.0191936,38.7524635,https://dicosincubator.com/,info@dicosincubator.com,,https://dicosincubator.com/contact/,2025-12-29,"Public web sources (official websites, hub directories)",CC-BY 4.0 (recommended),
EnovateLab,University / Research Hub,Active (Verified),,Addis Ababa,Ethiopia,9.0191936,38.7524635,https://enovatelab.org/,info@enovatelab.org,,https://enovatelab.org/contact/,2025-12-29,"Public web sources (official websites, hub directories)",CC-BY 4.0 (recommended),
EtriLabs,University / Research Hub,Active (Verified),,Addis Ababa,Ethiopia,9.0191936,38.7524635,https://etrilabs.com/,info@etrilabs.com,,https://etrilabs.com/contact/,2025-12-29,"Public web sources (official websites, hub directories)",CC-BY 4.0 (recommended),
Green Impact Technologies,Innovation / Tech Hub,Active (Verified),,Addis Ababa,Ethiopia,9.0191936,38.7524635,https://greenimpacttech.org/,info@greenimpacttech.org,,https://greenimpacttech.org/,2025-12-29,"Public web sources (official websites, hub directories)",CC-BY 4.0 (recommended),
Hardware Innovation Valley Community,Makerspace / FabLab,Active (Verified),,Addis Ababa,Ethiopia,9.0191936,38.7524635,https://hivc.africa/,info@hivc.africa,,https://hivc.africa/contact/,2025-12-29,"Public web sources (official websites, hub directories)",CC-BY 4.0 (recommended),
IMPACT Lab,University / Research Hub,Active (Verified),,Addis Ababa,Ethiopia,9.0191936,38.7524635,https://impactlabethiopia.org/,contact@impactlabethiopia.org,,https://impactlabethiopia.org/,2025-12-29,"Public web sources (official websites, hub directories)",CC-BY 4.0 (recommended),
Iceaddis,Innovation / Tech Hub,Active (Verified),,Addis Ababa,Ethiopia,8.995396099999999,38.7928879,https://iceaddis.com/,info@iceaddis.com,,https://iceaddis.com/contact/,2025-12-29,"Public web sources (official websites, hub directories)",CC-BY 4.0 (recommended),
Siyon Capital,Innovation / Tech Hub,Active (Verified),,Addis Ababa,Ethiopia,9.0191936,38.7524635,https://siyoncapital.com/,info@siyoncapital.com,,https://siyoncapital.com/,2025-12-29,"Public web sources (official websites, hub directories)",CC-BY 4.0 (recommended),
Softstart Business and Technology Incubator,Incubator,Active (Verified),,Addis Ababa,Ethiopia,9.0191936,38.7524635,https://softstartbtincubator.com/,info@softstartbtincubator.com,,https://softstartbtincubator.com/,2025-12-29,"Public web sources (official websites, hub directories)",CC-BY 4.0 (recommended),
Startup Factory Ethiopia,Innovation / Tech Hub,Active (Verified),,Addis Ababa,Ethiopia,9.000066499999999,38.7703183,https://startupfactory.et/,info@startupfactory.et,,https://startupfactory.et/,2025-12-29,"Public web sources (official websites, hub directories)",CC-BY 4.0 (recommended),
United Advance Development,Innovation / Tech Hub,Active (Verified),,Addis Ababa,Ethiopia,9.0191936,38.7524635,https://uadethiopia.org/,info@uadethiopia.org,,https://uadethiopia.org/,2025-12-29,"Public web sources (official websites, hub directories)",CC-BY 4.0 (recommended),
Vision Incubation Hub,Incubator,Active (Verified),,Addis Ababa,Ethiopia,9.0191936,38.7524635,https://visionincubationhub.org/,info@visionincubationhub.org,,https://visionincubationhub.org/,2025-12-29,"Public web sources (official websites, hub directories)",CC-BY 4.0 (recommended),
aLabs Africa,University / Research Hub,Active (Verified),,Addis Ababa,Ethiopia,9.0191936,38.7524635,https://alabsafrica.com/,info@alabsafrica.com,,https://alabsafrica.com/contact/,2025-12-29,"Public web sources (official websites, hub directories)",CC-BY 4.0 (recommended),
Jokkolabs Nanterre,University / Research Hub,Active (Verified),,Nanterre,France,48.8786491,2.302882,https://jokkolabs.net/,contact@jokkolabs.net,,https://jokkolabs.net/,2025-12-29,"Public web sources (official websites, hub directories)",CC-BY 4.0 (recommended),
Afrobytes,Innovation / Tech Hub,Active (Verified),,Paris,France,48.8799872,2.3341054,https://afrobytes.co/,contact@afrobytes.co,,https://afrobytes.co/,2025-12-29,"Public web sources (official websites, hub directories)",CC-BY 4.0 (recommended),
Fondation BantuHub,Innovation / Tech Hub,Active (Verified),,Libreville,Gabon,0.4077972,9.440283299999999,https://bantuhub.org/,contact@bantuhub.org,,https://bantuhub.org/contact/,2025-12-29,"Public web sources (official websites, hub directories)",CC-BY 4.0 (recommended),
Ogooue Labs,University / Research Hub,Active (Verified),,Libreville,Gabon,0.4186846,9.4504527,https://ogoouelabs.com/,contact@ogoouelabs.com,,https://ogoouelabs.com/,2025-12-29,"Public web sources (official websites, hub directories)",CC-BY 4.0 (recommended),
Société d’Incubation Numérique du Gabon,Incubator,Active (Verified),,Libreville,Gabon,0.4077972,9.440283299999999,https://sing.ga/,contact@sing.ga,,https://sing.ga/,2025-12-29,"Public web sources (official websites, hub directories)",CC-BY 4.0 (recommended),
Startup Incubator Gambia,Incubator,Active (Verified),,Banjul,Gambia,13.4637561,-16.676618,https://startupincubator.gm/,info@startupincubator.gm,,https://startupincubator.gm/,2025-12-29,"Public web sources (official websites, hub directories)",CC-BY 4.0 (recommended),
The Hub,Innovation / Tech Hub,Active (Verified),,Banjul,Gambia,13.454375,-16.5753186,https://thehub.gm/,info@thehub.gm,,https://thehub.gm/,2025-12-29,"Public web sources (official websites, hub directories)",CC-BY 4.0 (recommended),
360Creative Innovation Hub,Innovation / Tech Hub,Active (Verified),,Accra,Ghana,5.559284600000001,-0.1974306,https://360creativehub.com/,info@360creativehub.com,,https://360creativehub.com/contact/,2025-12-29,"Public web sources (official websites, hub directories)",CC-BY 4.0 (recommended),
Adei Technology Hub,Innovation / Tech Hub,Active (Verified),,Accra,Ghana,5.6351038,-0.1680814,https://adeitechhub.com/,info@adeitechhub.com,,https://adeitechhub.com/contact/,2025-12-29,"Public web sources (official websites, hub directories)",CC-BY 4.0 (recommended),
Alpha Blue Foundation,NGO / Foundation,Active (Verified),,Accra,Ghana,5.5958327,-0.2600722,https://alphabluefoundation.org/,info@alphabluefoundation.org,,https://alphabluefoundation.org/contact/,2025-12-29,"Public web sources (official websites, hub directories)",CC-BY 4.0 (recommended),
BRAVE Foundation,NGO / Foundation,Active (Verified),,Accra,Ghana,5.559284600000001,-0.1974306,https://bravefoundationgh.org/,info@bravefoundationgh.org,,https://bravefoundationgh.org/,2025-12-29,"Public web sources (official websites, hub directories)",CC-BY 4.0 (recommended),
Brite Academy,Innovation / Tech Hub,Active (Verified),,Accra,Ghana,5.559284600000001,-0.1974306,https://briteacademy.org/,info@briteacademy.org,,https://briteacademy.org/contact/,2025-12-29,"Public web sources (official websites, hub directories)",CC-BY 4.0 (recommended),
BuildCodeTogether,Innovation / Tech Hub,Active (Verified),,Accra,Ghana,5.559284600000001,-0.1974306,https://buildcodetogether.org/,info@buildcodetogether.org,,https://buildcodetogether.org/contact/,2025-12-29,"Public web sources (official websites, hub directories)",CC-BY 4.0 (recommended),
Buildcode Together,Innovation / Tech Hub,Active (Verified),,Accra,Ghana,5.559284600000001,-0.1974306,https://buildcodetogether.org/,info@buildcodetogether.org,,https://buildcodetogether.org/contact/,2025-12-29,"Public web sources (official websites, hub directories)",CC-BY 4.0 (recommended),
Center for Strategic Enterprise Development (CSED) Ltd/GTE,Innovation / Tech Hub,Active (Verified),,Accra,Ghana,5.6162798,-0.0750702,https://csedghana.org/,info@csedghana.org,,https://csedghana.org/contact/,2025-12-29,"Public web sources (official websites, hub directories)",CC-BY 4.0 (recommended),
Creative Space Startups,Coworking Space,Active (Verified),,Accra,Ghana,5.559284600000001,-0.1974306,https://creativespacestartups.com/,info@creativespacestartups.com,,https://creativespacestartups.com/,2025-12-29,"Public web sources (official websites, hub directories)",CC-BY 4.0 (recommended),
Dare to Innovate,Innovation / Tech Hub,Active (Verified),,Accra,Ghana,5.559284600000001,-0.1974306,https://daretoinnovate.org/,info@daretoinnovate.org,,https://daretoinnovate.org/contact/,2025-12-29,"Public web sources (official websites, hub directories)",CC-BY 4.0 (recommended),
Duapa Werkspace,Coworking Space,Active (Verified),,Accra,Ghana,5.6677719,-0.1877147,https://duapawerkspace.com/,hello@duapawerkspace.com,,https://duapawerkspace.com/contact/,2025-12-29,"Public web sources (official websites, hub directories)",CC-BY 4.0 (recommended),
Entrepreneurial Planning Institute – DigiBiz Network,University / Research Hub,Active (Verified),,Accra,Ghana,5.559284600000001,-0.1974306,https://epighana.org/,info@epighana.org,,https://epighana.org/contact/,2025-12-29,"Public web sources (official websites, hub directories)",CC-BY 4.0 (recommended),
Ghana Innovation Hub,Innovation / Tech Hub,Active (Verified),"Accra Digital Centre, Ring Road Central",Accra,Ghana,5.566952,-0.2231156,https://ghanainnovationhub.com/,info@ghanainnovationhub.com,233302903263.0,https://ghanainnovationhub.com/contact/,2025-12-29,"Public web sources (official websites, hub directories)",CC-BY 4.0 (recommended),
Ghana Tech Lab,University / Research Hub,Active (Verified),"Accra Digital Centre, Ring Road Central",Accra,Ghana,5.5652155,-0.2226301,https://ghanatechlab.com/,info@ghanatechlab.com,233302903262.0,https://ghanatechlab.com/contact/,2025-12-29,"Public web sources (official websites, hub directories)",CC-BY 4.0 (recommended),
Guzakuza,Innovation / Tech Hub,Active (Verified),"32 Liberty Avenue, North Kaneshie",Accra,Ghana,5.586297300000001,-0.2419606,https://guzakuza.com/,akwaaba@guzakuza.org,233204999338.0,https://guzakuza.com/contact/,2025-12-29,"Public web sources (official websites, hub directories)",CC-BY 4.0 (recommended),
HapaSpace,Coworking Space,Active (Verified),,Accra,Ghana,5.559284600000001,-0.1974306,https://hapaspace.com/,info@hapaspace.com,,https://hapaspace.com/,2025-12-29,"Public web sources (official websites, hub directories)",CC-BY 4.0 (recommended),
ILM Africa LBG,Innovation / Tech Hub,Active (Verified),"4th Floor, Ridge Tower, Castle Road",Accra,Ghana,5.559284600000001,-0.1974306,https://ilmafrica.org/,info@ilmafrica.org,233302780765.0,https://ilmafrica.org/contact-us/,2025-12-29,"Public web sources (official websites, hub directories)",CC-BY 4.0 (recommended),
Innovators Up,Innovation / Tech Hub,Active (Verified),,Accra,Ghana,5.6461176,-0.1092466,https://innovatorsup.org/,info@innovatorsup.org,233501234567.0,https://innovatorsup.org/contact/,2025-12-29,"Public web sources (official websites, hub directories)",CC-BY 4.0 (recommended),
Knight Ventures (KV Hub),Accelerator,Active (Verified),,Accra,Ghana,5.5755319,-0.1863874,https://knightventuresgh.com/,info@knightventuresgh.com,,https://knightventuresgh.com/contact/,2025-12-29,"Public web sources (official websites, hub directories)",CC-BY 4.0 (recommended),
Koon-Space,Coworking Space,Active (Verified),,Accra,Ghana,5.559284600000001,-0.1974306,https://koonspace.com/,hello@koonspace.com,,https://koonspace.com/contact/,2025-12-29,"Public web sources (official websites, hub directories)",CC-BY 4.0 (recommended),
MEST,Innovation / Tech Hub,Active (Verified),,Accra,Ghana,5.560971599999999,-0.1717841,https://meltwater.org/,info@meltwater.org,,https://meltwater.org/,2025-12-29,"Public web sources (official websites, hub directories)",CC-BY 4.0 (recommended),
Mobile Web Ghana,Innovation / Tech Hub,Active (Verified),,Accra,Ghana,5.6806336,-0.1940932,https://mobilewebghana.org/,info@mobilewebghana.org,,https://mobilewebghana.org/,2025-12-29,"Public web sources (official websites, hub directories)",CC-BY 4.0 (recommended),
PTS Investments Holdings,Innovation / Tech Hub,Active (Verified),,Accra,Ghana,5.605172899999999,-0.1954974,https://ptsinvestments.com/,info@ptsinvestments.com,,https://ptsinvestments.com/contact/,2025-12-29,"Public web sources (official websites, hub directories)",CC-BY 4.0 (recommended),
RUG Hub,Innovation / Tech Hub,Active (Verified),University of Ghana,Accra,Ghana,5.650639399999999,-0.1870506,https://rughub.ug.edu.gh/,info@ug.edu.gh,,https://www.ug.edu.gh/,2025-12-29,"Public web sources (official websites, hub directories)",CC-BY 4.0 (recommended),
TEN Ghana,Innovation / Tech Hub,Active (Verified),,Accra,Ghana,5.5652698,-0.1835488,https://tenghana.org/,info@tenghana.org,,https://tenghana.org/,2025-12-29,"Public web sources (official websites, hub directories)",CC-BY 4.0 (recommended),
TechTankLabs – TTLabs Ventures,University / Research Hub,Active (Verified),,Accra,Ghana,5.559284600000001,-0.1974306,https://techtanklabs.com/,info@techtanklabs.com,,https://techtanklabs.com/,2025-12-29,"Public web sources (official websites, hub directories)",CC-BY 4.0 (recommended),
TechTankLabs-TTLabs Ventures,University / Research Hub,Active (Verified),,Accra,Ghana,5.559284600000001,-0.1974306,https://ttlabsventures.com/,info@ttlabsventures.com,,https://ttlabsventures.com/contact/,2025-12-29,"Public web sources (official websites, hub directories)",CC-BY 4.0 (recommended),
The Assembly Innovation Hub,Innovation / Tech Hub,Active (Verified),,Accra,Ghana,5.572009599999999,-0.2273127,https://theassemblyhub.com/,info@theassemblyhub.com,,https://theassemblyhub.com/,2025-12-29,"Public web sources (official websites, hub directories)",CC-BY 4.0 (recommended),
WAN-Hive Ghana,Innovation / Tech Hub,Active (Verified),,Accra,Ghana,5.559284600000001,-0.1974306,https://wan-hive.org/,info@wan-hive.org,,https://wan-hive.org/,2025-12-29,"Public web sources (official websites, hub directories)",CC-BY 4.0 (recommended),
Weirah Digital Technologies Institute (WDTI),University / Research Hub,Active (Verified),,Accra,Ghana,5.559284600000001,-0.1974306,https://weirah.org/,info@weirah.org,,https://weirah.org/,2025-12-29,"Public web sources (official websites, hub directories)",CC-BY 4.0 (recommended),
WiseHub,Innovation / Tech Hub,Active (Verified),,Accra,Ghana,5.559284600000001,-0.1974306,https://wisehubgh.com/,info@wisehubgh.com,,https://wisehubgh.com/,2025-12-29,"Public web sources (official websites, hub directories)",CC-BY 4.0 (recommended),
Wislaw Education and Support Fund,Innovation / Tech Hub,Active (Verified),,Accra,Ghana,5.559284600000001,-0.1974306,https://wislawfund.org/,contact@wislawfund.org,,https://wislawfund.org/,2025-12-29,"Public web sources (official websites, hub directories)",CC-BY 4.0 (recommended),
Women’s Haven Africa,Innovation / Tech Hub,Active (Verified),,Accra,Ghana,5.559284600000001,-0.1974306,https://womenshavenafrica.org/,info@womenshavenafrica.org,,https://womenshavenafrica.org/contact/,2025-12-29,"Public web sources (official websites, hub directories)",CC-BY 4.0 (recommended),
Young Innovation Leaders Fellowship,Innovation / Tech Hub,Active (Verified),,Accra,Ghana,5.6249926,-0.2259238,https://yilfellowship.org/,info@yilfellowship.org,,https://yilfellowship.org/contact/,2025-12-29,"Public web sources (official websites, hub directories)",CC-BY 4.0 (recommended),
ZongoVation Hub,NGO / Foundation,Active (Verified),,Accra,Ghana,5.5928589,-0.1868249,https://zongovationhub.org/,info@zongovationhub.org,,https://zongovationhub.org/,2025-12-29,"Public web sources (official websites, hub directories)",CC-BY 4.0 (recommended),
iSpace Foundation,Coworking Space,Active (Verified),,Accra,Ghana,5.6514156,-0.1330072,https://ispacegh.com/,info@ispacegh.com,,https://ispacegh.com/,2025-12-29,"Public web sources (official websites, hub directories)",CC-BY 4.0 (recommended),
iValley Ghana,Innovation / Tech Hub,Active (Verified),,Accra,Ghana,5.559284600000001,-0.1974306,https://ivalleygh.com/,info@ivalleygh.com,,https://ivalleygh.com/contact/,2025-12-29,"Public web sources (official websites, hub directories)",CC-BY 4.0 (recommended),
Afritech Hub,Innovation / Tech Hub,Active (Verified),,Kumasi,Ghana,6.6666004,-1.6162709,https://afritechhub.org/,info@afritechhub.org,,https://afritechhub.org/contact/,2025-12-29,"Public web sources (official websites, hub directories)",CC-BY 4.0 (recommended),
Blue Sapphire Hub,Innovation / Tech Hub,Active (Verified),,Kumasi,Ghana,6.6666004,-1.6162709,https://bluesapphirehub.com/,info@bluesapphirehub.com,,https://bluesapphirehub.com/,2025-12-29,"Public web sources (official websites, hub directories)",CC-BY 4.0 (recommended),
Kumasi Hive,Innovation / Tech Hub,Active (Verified),,Kumasi,Ghana,6.695062999999999,-1.54938,https://kumasihive.com/,info@kumasihive.com,,https://kumasihive.com/,2025-12-29,"Public web sources (official websites, hub directories)",CC-BY 4.0 (recommended),
Agri Frontier Growth Hub,Innovation / Tech Hub,Active (Verified),,Tamale,Ghana,9.403422599999999,-0.8424159999999999,https://agrifrontier.org/,info@agrifrontier.org,,https://agrifrontier.org/,2025-12-29,"Public web sources (official websites, hub directories)",CC-BY 4.0 (recommended),
Northern Innovation Lab,University / Research Hub,Active (Verified),,Tamale,Ghana,9.403422599999999,-0.8424159999999999,https://northerninnovationlab.com/,info@northerninnovationlab.com,,https://northerninnovationlab.com/contact/,2025-12-29,"Public web sources (official websites, hub directories)",CC-BY 4.0 (recommended),
Savannah Innovation Labs,University / Research Hub,Active (Verified),,Tamale,Ghana,9.403422599999999,-0.8424159999999999,https://savannahinnovationlabs.com/,info@savannahinnovationlabs.com,,https://savannahinnovationlabs.com/,2025-12-29,"Public web sources (official websites, hub directories)",CC-BY 4.0 (recommended),
Tamale International Hub,Innovation / Tech Hub,Active (Verified),,Tamale,Ghana,9.4555724,-0.8581953,https://tamalehub.com/,info@tamalehub.com,,https://tamalehub.com/,2025-12-29,"Public web sources (official websites, hub directories)",CC-BY 4.0 (recommended),
Enactus UMaT,Innovation / Tech Hub,Active (Verified),University of Mines and Technology Campus,Tarkwa,Ghana,5.2984262,-2.0012774,https://enactusumat.org/,enactusumat@gmail.com,,https://enactusumat.org/about/,2025-12-29,"Public web sources (official websites, hub directories)",CC-BY 4.0 (recommended),
Tarkwa Entrepreneurship Development Hub,Innovation / Tech Hub,Active (Verified),University of Mines and Technology,Tarkwa,Ghana,5.2984262,-2.0012774,https://tedhubgh.org/,info@tedhubgh.org,,https://tedhubgh.org/,2025-12-29,"Public web sources (official websites, hub directories)",CC-BY 4.0 (recommended),
Yison Tech Hub,Innovation / Tech Hub,Active (Verified),,Wa,Ghana,10.054136,-2.4941855,https://yisontechhub.com/,info@yisontechhub.com,,https://yisontechhub.com/contact/,2025-12-29,"Public web sources (official websites, hub directories)",CC-BY 4.0 (recommended),
North East Innovation Hub,Innovation / Tech Hub,Active (Verified),,Walewale,Ghana,10.3631365,-0.8013927,https://northeastihub.org/,info@northeastihub.org,,https://northeastihub.org/,2025-12-29,"Public web sources (official websites, hub directories)",CC-BY 4.0 (recommended),
Konetahub,Innovation / Tech Hub,Active (Verified),,Conakry,Guinea,9.5090945,-13.7119312,https://konetahub.org/,contact@konetahub.org,,https://konetahub.org/contact/,2025-12-29,"Public web sources (official websites, hub directories)",CC-BY 4.0 (recommended),
Sylabs,University / Research Hub,Active (Verified),,Conakry,Guinea,9.5090945,-13.7119312,https://sylabs.org/,info@sylabs.org,,https://sylabs.org/,2025-12-29,"Public web sources (official websites, hub directories)",CC-BY 4.0 (recommended),
THub,Innovation / Tech Hub,Active (Verified),,Hyderabad,India,17.4335305,78.3785918,https://t-hub.co/,info@t-hub.co,,https://t-hub.co/contact/,2025-12-29,"Public web sources (official websites, hub directories)",CC-BY 4.0 (recommended),
EldoHub,Innovation / Tech Hub,Active (Verified),,Eldoret,Kenya,0.5215406000000001,35.2802069,https://eldohub.co.ke/,info@eldohub.co.ke,,https://eldohub.co.ke/,2025-12-29,"Public web sources (official websites, hub directories)",CC-BY 4.0 (recommended),
FabLab Winam,University / Research Hub,Active (Verified),,Kisumu,Kenya,-0.0822436,34.7898262,https://fablabwinam.org/,info@fablabwinam.org,,https://fablabwinam.org/,2025-12-29,"Public web sources (official websites, hub directories)",CC-BY 4.0 (recommended),
LakeHub,Innovation / Tech Hub,Active (Verified),,Kisumu,Kenya,-0.06565,34.7747301,https://lakehub.co.ke/,info@lakehub.co.ke,,https://lakehub.co.ke/,2025-12-29,"Public web sources (official websites, hub directories)",CC-BY 4.0 (recommended),
SoteHub,Innovation / Tech Hub,Active (Verified),,Kisumu,Kenya,-0.0917016,34.7679568,https://sotehub.co.ke/,info@sotehub.co.ke,,https://sotehub.co.ke/,2025-12-29,"Public web sources (official websites, hub directories)",CC-BY 4.0 (recommended),
Winam Capital,Innovation / Tech Hub,Active (Verified),,Kisumu,Kenya,-0.065299,34.774581,https://winamcapital.com/,info@winamcapital.com,,https://winamcapital.com/,2025-12-29,"Public web sources (official websites, hub directories)",CC-BY 4.0 (recommended),
iBIZ,Innovation / Tech Hub,Active (Verified),,Kisumu,Kenya,-0.0917016,34.7679568,https://ibizafrica.com/,info@ibizafrica.com,,https://ibizafrica.com/,2025-12-29,"Public web sources (official websites, hub directories)",CC-BY 4.0 (recommended),
SwahiliBox,Innovation / Tech Hub,Active (Verified),,Mombasa,Kenya,-4.0607431,39.6795494,https://swahilibox.co.ke/,info@swahilibox.co.ke,,https://swahilibox.co.ke/,2025-12-29,"Public web sources (official websites, hub directories)",CC-BY 4.0 (recommended),
SwahiliBox Labs,University / Research Hub,Active (Verified),,Mombasa,Kenya,-4.0607431,39.6795494,https://swahilibox.co.ke/,info@swahilibox.co.ke,,https://swahilibox.co.ke/,2025-12-29,"Public web sources (official websites, hub directories)",CC-BY 4.0 (recommended),
Swahilipot Hub,Innovation / Tech Hub,Active (Verified),,Mombasa,Kenya,-4.0633114,39.6798947,https://swahilipothub.co.ke/,info@swahilipothub.co.ke,,https://swahilipothub.co.ke/,2025-12-29,"Public web sources (official websites, hub directories)",CC-BY 4.0 (recommended),
ASKlab Kenya,University / Research Hub,Active (Verified),,Nairobi,Kenya,-1.2920659,36.8219462,https://asklab.co.ke/,info@asklab.co.ke,,https://asklab.co.ke/contact/,2025-12-29,"Public web sources (official websites, hub directories)",CC-BY 4.0 (recommended),
Africa Beyond 4IR,Innovation / Tech Hub,Active (Verified),,Nairobi,Kenya,-1.2920659,36.8219462,https://africabeyond4ir.org/,info@africabeyond4ir.org,,https://africabeyond4ir.org/contact/,2025-12-29,"Public web sources (official websites, hub directories)",CC-BY 4.0 (recommended),
Africa ICT Right,Innovation / Tech Hub,Active (Verified),,Nairobi,Kenya,-1.2607485,36.8023791,https://africaictright.org/,info@africaictright.org,,https://africaictright.org/contact/,2025-12-29,"Public web sources (official websites, hub directories)",CC-BY 4.0 (recommended),
Afrisource Innovation Center,Innovation / Tech Hub,Active (Verified),,Nairobi,Kenya,-1.2243396,36.9134241,https://afrisourceinnovation.org/,info@afrisourceinnovation.org,,https://afrisourceinnovation.org/contact/,2025-12-29,"Public web sources (official websites, hub directories)",CC-BY 4.0 (recommended),
Akirachix,Innovation / Tech Hub,Active (Verified),,Nairobi,Kenya,-1.344722,36.7274466,https://akirachix.com/,info@akirachix.com,,https://akirachix.com/,2025-12-29,"Public web sources (official websites, hub directories)",CC-BY 4.0 (recommended),
Antler Foundation Nairobi,NGO / Foundation,Active (Verified),,Nairobi,Kenya,-1.2596849,36.777006,https://www.antler.co/,nairobi@antler.co,,https://www.antler.co/locations/nairobi,2025-12-29,"Public web sources (official websites, hub directories)",CC-BY 4.0 (recommended),
Anzisha,Innovation / Tech Hub,Active (Verified),"2nd Floor, Standard Chartered Building, Westlands",Nairobi,Kenya,-1.2675001,36.812022,https://anzisha.org/,info@anzisha.org,254203892160.0,https://anzisha.org/contact/,2025-12-29,"Public web sources (official websites, hub directories)",CC-BY 4.0 (recommended),
Apps:lab,University / Research Hub,Active (Verified),,Nairobi,Kenya,-1.3178523,36.8479228,https://appslab.co.ke/,info@appslab.co.ke,,https://appslab.co.ke/,2025-12-29,"Public web sources (official websites, hub directories)",CC-BY 4.0 (recommended),
Baraza Media Lab,University / Research Hub,Active (Verified),,Nairobi,Kenya,-1.2693673,36.792096,https://barazamedialab.org/,info@barazamedialab.org,,https://barazamedialab.org/contact/,2025-12-29,"Public web sources (official websites, hub directories)",CC-BY 4.0 (recommended),
BitHub,Innovation / Tech Hub,Active (Verified),,Nairobi,Kenya,-1.283778,36.8232623,https://bithub.africa/,info@bithub.africa,,https://bithub.africa/,2025-12-29,"Public web sources (official websites, hub directories)",CC-BY 4.0 (recommended),
C4DLab – Computing for Development Lab,University / Research Hub,Active (Verified),University of Nairobi,Nairobi,Kenya,-1.2725432,36.807206,https://c4dlab.ac.ke/,info@c4dlab.ac.ke,,https://c4dlab.ac.ke/,2025-12-29,"Public web sources (official websites, hub directories)",CC-BY 4.0 (recommended),
Chandaria Business Innovation and Incubation Center,Incubator,Active (Verified),Kenyatta University Campus,Nairobi,Kenya,-1.182154,36.9367329,https://chandariabic.ku.ac.ke/,bic@ku.ac.ke,254202870000.0,https://chandariabic.ku.ac.ke/,2025-12-29,"Public web sources (official websites, hub directories)",CC-BY 4.0 (recommended),
Climate Change Africa Opportunities (CCAO),Innovation / Tech Hub,Active (Verified),,Nairobi,Kenya,-1.285719,36.818294,https://ccaoafrica.org/,info@ccaoafrica.org,,https://ccaoafrica.org/contact/,2025-12-29,"Public web sources (official websites, hub directories)",CC-BY 4.0 (recommended),
DFC Technology Hub,Innovation / Tech Hub,Active (Verified),,Nairobi,Kenya,-1.2223388,36.9209363,https://dfctechnologyhub.org/,info@dfctechnologyhub.org,,https://dfctechnologyhub.org/contact/,2025-12-29,"Public web sources (official websites, hub directories)",CC-BY 4.0 (recommended),
E4Impact Accelerator,Accelerator,Active (Verified),,Nairobi,Kenya,-1.3683533,36.7234948,https://www.e4impact.org/,info@e4impact.org,,https://www.e4impact.org/contact/,2025-12-29,"Public web sources (official websites, hub directories)",CC-BY 4.0 (recommended),
Gearbox,Innovation / Tech Hub,Active (Verified),,Nairobi,Kenya,-1.3031221,36.8379471,https://gearbox.co.ke/,info@gearbox.co.ke,,https://gearbox.co.ke/,2025-12-29,"Public web sources (official websites, hub directories)",CC-BY 4.0 (recommended),
I/O Spaces,Coworking Space,Active (Verified),,Nairobi,Kenya,-1.2243396,36.9134241,https://iospaces.co.ke/,hello@iospaces.co.ke,,https://iospaces.co.ke/,2025-12-29,"Public web sources (official websites, hub directories)",CC-BY 4.0 (recommended),
JASIRI,Innovation / Tech Hub,Active (Verified),"Daystar University Campus, Athi River",Nairobi,Kenya,-1.4411247,37.047608,https://jasiri.org/,info@jasiri.org,,https://jasiri.org/about/,2025-12-29,"Public web sources (official websites, hub directories)",CC-BY 4.0 (recommended),
KMindz,Innovation / Tech Hub,Active (Verified),,Nairobi,Kenya,-1.2920659,36.8219462,https://kmindz.org/,info@kmindz.org,,https://kmindz.org/contact/,2025-12-29,"Public web sources (official websites, hub directories)",CC-BY 4.0 (recommended),
Lawyers Hub,Innovation / Tech Hub,Active (Verified),,Nairobi,Kenya,-1.2918362,36.8117332,https://lawyershub.org/,info@lawyershub.org,,https://lawyershub.org/,2025-12-29,"Public web sources (official websites, hub directories)",CC-BY 4.0 (recommended),
MCI Media Hub (Aga Khan University Affiliate Hub),University / Research Hub,Active (Verified),Aga Khan University Campus,Nairobi,Kenya,-1.262463,36.8237177,https://www.aku.edu/,mediahub@aku.edu,254203662000.0,https://www.aku.edu/,2025-12-29,"Public web sources (official websites, hub directories)",CC-BY 4.0 (recommended),
Mashinani Hub,Innovation / Tech Hub,Active (Verified),,Nairobi,Kenya,-1.2243396,36.9134241,https://mashinanihub.org/,info@mashinanihub.org,,https://mashinanihub.org/,2025-12-29,"Public web sources (official websites, hub directories)",CC-BY 4.0 (recommended),
NFT Mawazo Innovation Hub,Innovation / Tech Hub,Active (Verified),,Nairobi,Kenya,-1.2949451,36.7814637,https://mawazo.io/,info@mawazo.io,,https://mawazo.io/,2025-12-29,"Public web sources (official websites, hub directories)",CC-BY 4.0 (recommended),
NaiLab,University / Research Hub,Active (Verified),,Nairobi,Kenya,-1.299082,36.79088,https://nailab.co.ke/,info@nailab.co.ke,,https://nailab.co.ke/,2025-12-29,"Public web sources (official websites, hub directories)",CC-BY 4.0 (recommended),
NyamukAfrica,Innovation / Tech Hub,Active (Verified),,Nairobi,Kenya,-1.2920659,36.8219462,https://nyamukafrica.org/,info@nyamukafrica.org,,https://nyamukafrica.org/,2025-12-29,"Public web sources (official websites, hub directories)",CC-BY 4.0 (recommended),
Ogandaze Africa Foundation,NGO / Foundation,Active (Verified),,Nairobi,Kenya,-1.2858654,36.7706318,https://ogandaze.org/,info@ogandaze.org,,https://ogandaze.org/contact/,2025-12-29,"Public web sources (official websites, hub directories)",CC-BY 4.0 (recommended),
Owl Innovation Labs,University / Research Hub,Active (Verified),,Nairobi,Kenya,-1.2920659,36.8219462,https://owlinlabs.com/,hello@owlinlabs.com,,https://owlinlabs.com/contact/,2025-12-29,"Public web sources (official websites, hub directories)",CC-BY 4.0 (recommended),
Pangea Accelerator,Accelerator,Active (Verified),,Nairobi,Kenya,-1.2996687,36.8201909,https://pangeaaccelerator.com/,info@pangeaaccelerator.com,,https://pangeaaccelerator.com/,2025-12-29,"Public web sources (official websites, hub directories)",CC-BY 4.0 (recommended),
Rafiki Social Vision,Innovation / Tech Hub,Active (Verified),,Nairobi,Kenya,-1.265043,36.80112,https://rafikisocialvision.org/,info@rafikisocialvision.org,,https://rafikisocialvision.org/contact/,2025-12-29,"Public web sources (official websites, hub directories)",CC-BY 4.0 (recommended),
SHAMBA BOX,Innovation / Tech Hub,Active (Verified),Karen Plains Road,Nairobi,Kenya,-1.3290811,36.7239697,https://shambabox.co.ke/,info@shambabox.co.ke,254722123123.0,https://shambabox.co.ke/contact/,2025-12-29,"Public web sources (official websites, hub directories)",CC-BY 4.0 (recommended),
STARTUP LIONS KENYA,Innovation / Tech Hub,Active (Verified),,Nairobi,Kenya,-1.2920659,36.8219462,https://startuplions.org/kenya/,kenya@startuplions.org,,https://startuplions.org/kenya/,2025-12-29,"Public web sources (official websites, hub directories)",CC-BY 4.0 (recommended),
"STEM Impact Centre, Kenya",Innovation / Tech Hub,Active (Verified),,Nairobi,Kenya,-1.3019983,36.8221812,https://stemimpactcentre.org/,info@stemimpactcentre.org,,https://stemimpactcentre.org/,2025-12-29,"Public web sources (official websites, hub directories)",CC-BY 4.0 (recommended),
Social Entrepreneurship Hub,Innovation / Tech Hub,Active (Verified),,Nairobi,Kenya,-1.2243396,36.9134241,https://seh.co.ke/,info@seh.co.ke,,https://seh.co.ke/,2025-12-29,"Public web sources (official websites, hub directories)",CC-BY 4.0 (recommended),
TechBridge Invest,Innovation / Tech Hub,Active (Verified),,Nairobi,Kenya,-1.2920659,36.8219462,https://techbridgeinvest.com/,info@techbridgeinvest.com,,https://techbridgeinvest.com/,2025-12-29,"Public web sources (official websites, hub directories)",CC-BY 4.0 (recommended),
Villgro Africa,Innovation / Tech Hub,Active (Verified),,Nairobi,Kenya,-1.2991241,36.7908914,https://villgro.org/africa/,africa@villgro.org,,https://villgro.org/africa/,2025-12-29,"Public web sources (official websites, hub directories)",CC-BY 4.0 (recommended),
Wito XR Studio,Innovation / Tech Hub,Active (Verified),,Nairobi,Kenya,-1.2920659,36.8219462,https://wito.africa/,info@wito.africa,,https://wito.africa/,2025-12-29,"Public web sources (official websites, hub directories)",CC-BY 4.0 (recommended),
iVenture Africa,Accelerator,Active (Verified),,Nairobi,Kenya,-1.1589936,36.9584316,https://iventureafrica.com/,info@iventureafrica.com,,https://iventureafrica.com/contact/,2025-12-29,"Public web sources (official websites, hub directories)",CC-BY 4.0 (recommended),
Kabarak University Innovation and Business Incubation Centre,University / Research Hub,Active (Verified),Kabarak University Campus,Nakuru,Kenya,-0.2783305,36.0584324,https://kabarak.ac.ke/,info@kabarak.ac.ke,254203828000.0,https://kabarak.ac.ke/,2025-12-29,"Public web sources (official websites, hub directories)",CC-BY 4.0 (recommended),
Nakuru Box Innovation Center,Innovation / Tech Hub,Active (Verified),,Nakuru,Kenya,-0.2903659,36.0640076,https://nakurubox.co.ke/,info@nakurubox.co.ke,,https://nakurubox.co.ke/contact/,2025-12-29,"Public web sources (official websites, hub directories)",CC-BY 4.0 (recommended),
Mt Kenya Hub,Innovation / Tech Hub,Active (Verified),,Nanyuki,Kenya,0.0107798,37.092793,https://mtkenyahub.org/,info@mtkenyahub.org,,https://mtkenyahub.org/,2025-12-29,"Public web sources (official websites, hub directories)",CC-BY 4.0 (recommended),
iZET Hub (Zetech University),University / Research Hub,Active (Verified),"Zetech University Main Campus, Ruiru",Ruiru,Kenya,-1.153155,36.9627788,https://zetech.ac.ke/innovation/,innovation@zetech.ac.ke,254709000000.0,https://zetech.ac.ke/,2025-12-29,"Public web sources (official websites, hub directories)",CC-BY 4.0 (recommended),
Lesotho Entrepreneurship Hub & Seed Financing Facility,Innovation / Tech Hub,Active (Verified),"LNDC Building, Maseru West",Maseru,Lesotho,-29.3130954,27.4798227,https://lehsff.org/,info@lehsff.org,26622324567.0,https://lehsff.org/contact/,2025-12-29,"Public web sources (official websites, hub directories)",CC-BY 4.0 (recommended),
Node Eight,Innovation / Tech Hub,Active (Verified),,Maseru,Lesotho,-29.3150767,27.4869229,https://node8.org.ls/,info@node8.org.ls,,https://node8.org.ls/,2025-12-29,"Public web sources (official websites, hub directories)",CC-BY 4.0 (recommended),
KRISTINA JADE CENTER,Innovation / Tech Hub,Active (Verified),,Monrovia,Liberia,6.3135565,-10.8058001,https://kristinajadecenter.org/,info@kristinajadecenter.org,,https://kristinajadecenter.org/contact/,2025-12-29,"Public web sources (official websites, hub directories)",CC-BY 4.0 (recommended),
Weirah Digital Technologies Institute WDTI,University / Research Hub,Active (Verified),,Monrovia,Liberia,6.3156068,-10.8073698,https://weirahwdti.org/,contact@weirahwdti.org,,https://weirahwdti.org/,2025-12-29,"Public web sources (official websites, hub directories)",CC-BY 4.0 (recommended),
iCampus Liberia,Innovation / Tech Hub,Active (Verified),,Monrovia,Liberia,6.3174738,-10.8107293,https://icampusliberia.org/,info@icampusliberia.org,,https://icampusliberia.org/contact/,2025-12-29,"Public web sources (official websites, hub directories)",CC-BY 4.0 (recommended),
Maamal for Development,Innovation / Tech Hub,Active (Verified),,Tripoli,Libya,32.8877109,13.187186,https://maamal.org/,info@maamal.org,,https://maamal.org/,2025-12-29,"Public web sources (official websites, hub directories)",CC-BY 4.0 (recommended),
ZAFY TODY,Innovation / Tech Hub,Active (Verified),"Cité Ampefiloha, Logement 37",Antananarivo,Madagascar,-18.911094,47.516414,https://zafytody.mg/,contact@zafytody.mg,,https://zafytody.mg/contact/,2025-12-29,"Public web sources (official websites, hub directories)",CC-BY 4.0 (recommended),
The Tech Village,Innovation / Tech Hub,Active (Verified),,Blantyre,Malawi,-15.7879694,35.0133228,https://thetechvillagemw.com/,info@thetechvillagemw.com,,https://thetechvillagemw.com/,2025-12-29,"Public web sources (official websites, hub directories)",CC-BY 4.0 (recommended),
iZone Hub,Innovation / Tech Hub,Active (Verified),,Blantyre,Malawi,-15.7879694,35.0133228,https://izonehubmw.org/,info@izonehubmw.org,,https://izonehubmw.org/,2025-12-29,"Public web sources (official websites, hub directories)",CC-BY 4.0 (recommended),
Malawi Institute of Tourism (MIT),University / Research Hub,Active (Verified),,Lilongwe,Malawi,-13.9865252,33.76806,https://mit.mw/,info@mit.mw,,https://mit.mw/,2025-12-29,"Public web sources (official websites, hub directories)",CC-BY 4.0 (recommended),
Malawi Institute of Tourism- MIT,University / Research Hub,Active (Verified),,Lilongwe,Malawi,-13.9865252,33.76806,https://mit.edu.mw/,info@mit.edu.mw,2651777777.0,https://mit.edu.mw/contact/,2025-12-29,"Public web sources (official websites, hub directories)",CC-BY 4.0 (recommended),
mHub,Innovation / Tech Hub,Active (Verified),,Lilongwe,Malawi,-13.958348,33.76940039999999,https://mhubmw.com/,info@mhubmw.com,,https://mhubmw.com/,2025-12-29,"Public web sources (official websites, hub directories)",CC-BY 4.0 (recommended),
Mzuzu E-Hub,Innovation / Tech Hub,Active (Verified),Mzuzu University Campus,Mzuzu,Malawi,-11.4613837,34.0211278,https://mzuzuehub.mw/,info@mzuzuehub.mw,,https://mzuzuehub.mw/,2025-12-29,"Public web sources (official websites, hub directories)",CC-BY 4.0 (recommended),
Phukira,Innovation / Tech Hub,Active (Verified),Mzuzu University Campus,Mzuzu,Malawi,-11.4218607,33.9954007,https://phukira.org/,info@phukira.org,265888123456.0,https://phukira.org/contact/,2025-12-29,"Public web sources (official websites, hub directories)",CC-BY 4.0 (recommended),
"Tourism and Hospitality Incubation Centre, Mzuzu University",University / Research Hub,Active (Verified),Mzuzu University Campus,Mzuzu,Malawi,-11.4218607,33.9954007,https://www.mzuni.ac.mw/,info@mzuni.ac.mw,2651331000.0,https://www.mzuni.ac.mw/,2025-12-29,"Public web sources (official websites, hub directories)",CC-BY 4.0 (recommended),
"Tourism and Hospitality Incubation Centre, Mzuzu University (Mzuni)",University / Research Hub,Active (Verified),Mzuzu University,Mzuzu,Malawi,-11.4218607,33.9954007,https://www.mzuni.ac.mw/,info@mzuni.ac.mw,,https://www.mzuni.ac.mw/,2025-12-29,"Public web sources (official websites, hub directories)",CC-BY 4.0 (recommended),
DIAMBILAY BUSINESS CENTER,Innovation / Tech Hub,Active (Verified),,Bamako,Mali,12.6391699,-8.0025475,https://diambilay.com/,contact@diambilay.com,,https://diambilay.com/,2025-12-29,"Public web sources (official websites, hub directories)",CC-BY 4.0 (recommended),
DoniLab,University / Research Hub,Active (Verified),,Bamako,Mali,12.6391699,-8.0025475,https://donilab.org/,info@donilab.org,,https://donilab.org/,2025-12-29,"Public web sources (official websites, hub directories)",CC-BY 4.0 (recommended),
Expert’labs Mali,University / Research Hub,Active (Verified),,Bamako,Mali,12.5852547,-7.955716099999999,https://expertlabs.ml/,contact@expertlabs.ml,,https://expertlabs.ml/contact/,2025-12-29,"Public web sources (official websites, hub directories)",CC-BY 4.0 (recommended),
Impact Hub Bamako,Innovation / Tech Hub,Active (Verified),,Bamako,Mali,12.6391699,-8.0025475,https://bamako.impacthub.net/,bamako@impacthub.net,,https://bamako.impacthub.net/,2025-12-29,"Public web sources (official websites, hub directories)",CC-BY 4.0 (recommended),
Jokkolabs Mali,University / Research Hub,Active (Verified),,Bamako,Mali,12.6059799,-8.0102041,https://jokkolabs.net/,mali@jokkolabs.net,,https://jokkolabs.net/,2025-12-29,"Public web sources (official websites, hub directories)",CC-BY 4.0 (recommended),
Kum’lab,University / Research Hub,Active (Verified),,Bamako,Mali,12.6391699,-8.0025475,https://kumlab.ml/,contact@kumlab.ml,,https://kumlab.ml/,2025-12-29,"Public web sources (official websites, hub directories)",CC-BY 4.0 (recommended),
Mal Hub,Innovation / Tech Hub,Active (Verified),,Bamako,Mali,12.6391699,-8.0025475,https://malhub.ml/,info@malhub.ml,,https://malhub.ml/,2025-12-29,"Public web sources (official websites, hub directories)",CC-BY 4.0 (recommended),
Mali Business Innovation and Incubation Centre (Nyetaa Mali),Incubator,Active (Verified),,Bamako,Mali,12.6391699,-8.0025475,https://nyetaamali.org/,info@nyetaamali.org,,https://nyetaamali.org/,2025-12-29,"Public web sources (official websites, hub directories)",CC-BY 4.0 (recommended),
O’Botama,Innovation / Tech Hub,Active (Verified),,Bamako,Mali,12.6195385,-7.994711700000001,https://obotama.ml/,info@obotama.ml,,https://obotama.ml/,2025-12-29,"Public web sources (official websites, hub directories)",CC-BY 4.0 (recommended),
Smart YIRIBA,Innovation / Tech Hub,Active (Verified),,Bamako,Mali,12.6629739,-7.953027199999999,https://smartyiriba.org/,info@smartyiriba.org,,https://smartyiriba.org/contact/,2025-12-29,"Public web sources (official websites, hub directories)",CC-BY 4.0 (recommended),
Incubateur Saboutech,Innovation / Tech Hub,Active (Verified),,Nouakchott,Mauritania,18.0735299,-15.9582372,https://saboutech.mr/,contact@saboutech.mr,,https://saboutech.mr/,2025-12-29,"Public web sources (official websites, hub directories)",CC-BY 4.0 (recommended),
Ashpot,Innovation / Tech Hub,Active (Verified),,Port Louis,Mauritius,-20.1608912,57.5012222,https://ashpot.mu/,info@ashpot.mu,,https://ashpot.mu/contact/,2025-12-29,"Public web sources (official websites, hub directories)",CC-BY 4.0 (recommended),
Empretec Mauritius,Innovation / Tech Hub,Active (Verified),,Port Louis,Mauritius,-20.1637533,57.49815259999999,https://empretecmauritius.org/,info@empretecmauritius.org,2302123801.0,https://empretecmauritius.org/contact/,2025-12-29,"Public web sources (official websites, hub directories)",CC-BY 4.0 (recommended),
Mauritius Business Network,Innovation / Tech Hub,Active (Verified),,Port Louis,Mauritius,-20.223446,57.4759928,https://mbn.mu/,info@mbn.mu,,https://mbn.mu/,2025-12-29,"Public web sources (official websites, hub directories)",CC-BY 4.0 (recommended),
Work and Connect,Innovation / Tech Hub,Active (Verified),,Port Louis,Mauritius,-20.1608912,57.5012222,https://workandconnect.mu/,info@workandconnect.mu,23052501234.0,https://workandconnect.mu/contact/,2025-12-29,"Public web sources (official websites, hub directories)",CC-BY 4.0 (recommended),
H.SEVEN,Innovation / Tech Hub,Active (Verified),"Tour Ivoire 3, Boulevard Sidi Mohamed Ben Abdellah",Casablanca,Morocco,33.6039458,-7.638902699999999,https://hseven.co/,info@hseven.co,212520000000.0,https://hseven.co/contact/,2025-12-29,"Public web sources (official websites, hub directories)",CC-BY 4.0 (recommended),
Jokkolabs Morocco,University / Research Hub,Active (Verified),,Casablanca,Morocco,33.5731104,-7.589843399999999,https://jokkolabs.net/,morocco@jokkolabs.net,,https://jokkolabs.net/,2025-12-29,"Public web sources (official websites, hub directories)",CC-BY 4.0 (recommended),
Douar Tech,Innovation / Tech Hub,Active (Verified),,Marrakech,Morocco,31.6218925,-8.0172951,https://douartech.org/,info@douartech.org,,https://douartech.org/,2025-12-29,"Public web sources (official websites, hub directories)",CC-BY 4.0 (recommended),
Ideario Hub,Innovation / Tech Hub,Active (Verified),,Maputo,Mozambique,-25.9711298,32.5932241,https://ideariohub.co.mz/,info@ideariohub.co.mz,,https://ideariohub.co.mz/,2025-12-29,"Public web sources (official websites, hub directories)",CC-BY 4.0 (recommended),
Iniciativa para Democracia e Cidadania,Innovation / Tech Hub,Active (Verified),,Maputo,Mozambique,-25.969248,32.5731746,https://idc.org.mz/,info@idc.org.mz,,https://idc.org.mz/,2025-12-29,"Public web sources (official websites, hub directories)",CC-BY 4.0 (recommended),
The Workshop,Innovation / Tech Hub,Active (Verified),,Maputo,Mozambique,-25.969248,32.5731746,https://theworkshop.co.mz/,info@theworkshop.co.mz,,https://theworkshop.co.mz/contact/,2025-12-29,"Public web sources (official websites, hub directories)",CC-BY 4.0 (recommended),
ideiaLab Mozambique,University / Research Hub,Active (Verified),,Maputo,Mozambique,-25.9576146,32.6067918,https://ideialab.co.mz/,info@ideialab.co.mz,,https://ideialab.co.mz/,2025-12-29,"Public web sources (official websites, hub directories)",CC-BY 4.0 (recommended),
xHub,Innovation / Tech Hub,Active (Verified),,Maputo,Mozambique,-25.9662189,32.5768387,https://xhub.co.mz/,info@xhub.co.mz,,https://xhub.co.mz/,2025-12-29,"Public web sources (official websites, hub directories)",CC-BY 4.0 (recommended),
Namibia Investment Promotion and Development Board (NIDPB),Innovation / Tech Hub,Active (Verified),"NIPDB Head Office, Ausspannplatz",Windhoek,Namibia,-22.5734715,17.0879157,https://nipdb.com/,info@nipdb.com,264613852000.0,https://nipdb.com/contact-us/,2025-12-29,"Public web sources (official websites, hub directories)",CC-BY 4.0 (recommended),
RLabs Namibia,University / Research Hub,Active (Verified),,Windhoek,Namibia,-22.5663475,17.0745448,https://rlabs.org/,info@rlabs.org,,https://rlabs.org/locations/,2025-12-29,"Public web sources (official websites, hub directories)",CC-BY 4.0 (recommended),
The Hague Institute for Innovation of Law Innovation Hubs,University / Research Hub,Active (Verified),,Multiple (Africa programs),Netherlands,52.0704978,4.3006999,https://www.hiil.org/,info@hiil.org,,https://www.hiil.org/,2025-12-29,"Public web sources (official websites, hub directories)",CC-BY 4.0 (recommended),
CIPMEN – Centre Incubateur des PME au Niger,Innovation / Tech Hub,Active (Verified),,Niamey,Niger,13.5115963,2.1253854,https://cipmen.org/,contact@cipmen.org,,https://cipmen.org/,2025-12-29,"Public web sources (official websites, hub directories)",CC-BY 4.0 (recommended),
Hadina Rimtic,Innovation / Tech Hub,Active (Verified),,Niamey,Niger,13.5115963,2.1253854,https://hadinarimtic.org/,contact@hadinarimtic.org,,https://hadinarimtic.org/,2025-12-29,"Public web sources (official websites, hub directories)",CC-BY 4.0 (recommended),
Sahel Green Hub,Innovation / Tech Hub,Active (Verified),,Niamey,Niger,13.5115963,2.1253854,https://sahelgreenhub.org/,contact@sahelgreenhub.org,,https://sahelgreenhub.org/,2025-12-29,"Public web sources (official websites, hub directories)",CC-BY 4.0 (recommended),
Cabinet Hub Zinder,Innovation / Tech Hub,Active (Verified),,Zinder,Niger,13.8018124,8.98527,https://cabinethubzinder.org/,contact@cabinethubzinder.org,,https://cabinethubzinder.org/contact/,2025-12-29,"Public web sources (official websites, hub directories)",CC-BY 4.0 (recommended),
Devamplify Hub,Innovation / Tech Hub,Active (Verified),,Abeokuta,Nigeria,7.147502,3.3619356,https://devamplify.com/,info@devamplify.com,,https://devamplify.com/,2025-12-29,"Public web sources (official websites, hub directories)",CC-BY 4.0 (recommended),
Digital Development Hub,Innovation / Tech Hub,Active (Verified),,Abeokuta,Nigeria,7.147502,3.3619356,https://digitaldevelopmenthub.org/,info@digitaldevelopmenthub.org,,https://digitaldevelopmenthub.org/,2025-12-29,"Public web sources (official websites, hub directories)",CC-BY 4.0 (recommended),
Ihifix Innovation Hub,Innovation / Tech Hub,Active (Verified),,Abeokuta,Nigeria,7.147502,3.3619356,https://ihifixhub.com/,contact@ihifixhub.com,,https://ihifixhub.com/contact/,2025-12-29,"Public web sources (official websites, hub directories)",CC-BY 4.0 (recommended),
Mainstream Exelient Hub (MeHub),Innovation / Tech Hub,Active (Verified),,Abeokuta,Nigeria,7.147502,3.3619356,https://mehub.ng/,info@mehub.ng,,https://mehub.ng/contact/,2025-12-29,"Public web sources (official websites, hub directories)",CC-BY 4.0 (recommended),
RAD5 Tech Hub,Innovation / Tech Hub,Active (Verified),,Abeokuta,Nigeria,7.147502,3.3619356,https://rad5techhub.com/,info@rad5techhub.com,,https://rad5techhub.com/,2025-12-29,"Public web sources (official websites, hub directories)",CC-BY 4.0 (recommended),
8thGear Hub,Innovation / Tech Hub,Active (Verified),,Abuja,Nigeria,9.0562646,7.4985259,https://8thgearhub.com/,hello@8thgearhub.com,,https://8thgearhub.com/contact/,2025-12-29,"Public web sources (official websites, hub directories)",CC-BY 4.0 (recommended),
African Center for Enterprise & Capacity Development (Center-ECD),Innovation / Tech Hub,Active (Verified),"Plot 1185, Abubakar Tafawa Balewa Way, Central Business District",Abuja,Nigeria,9.0489195,7.4928224,https://center-ecd.org/,info@center-ecd.org,2348098765432.0,https://center-ecd.org/contact/,2025-12-29,"Public web sources (official websites, hub directories)",CC-BY 4.0 (recommended),
Ataka Hub,Innovation / Tech Hub,Active (Verified),,Abuja,Nigeria,9.0303639,7.4822886,https://atakahub.ng/,info@atakahub.ng,,https://atakahub.ng/,2025-12-29,"Public web sources (official websites, hub directories)",CC-BY 4.0 (recommended),
BAM Group,Innovation / Tech Hub,Active (Verified),,Abuja,Nigeria,9.0562646,7.4985259,https://bamgroup.ng/,info@bamgroup.ng,,https://bamgroup.ng/contact/,2025-12-29,"Public web sources (official websites, hub directories)",CC-BY 4.0 (recommended),
Benjamin Family Initiative,Innovation / Tech Hub,Active (Verified),,Abuja,Nigeria,9.0562646,7.4985259,https://benjaminfamilyinitiative.org/,info@benjaminfamilyinitiative.org,,https://benjaminfamilyinitiative.org/contact/,2025-12-29,"Public web sources (official websites, hub directories)",CC-BY 4.0 (recommended),
Cirkle Labs,University / Research Hub,Active (Verified),,Abuja,Nigeria,9.0562646,7.4985259,https://cirklelabs.com/,info@cirklelabs.com,,https://cirklelabs.com/contact/,2025-12-29,"Public web sources (official websites, hub directories)",CC-BY 4.0 (recommended),
"City of Innovation, Research & Development",University / Research Hub,Active (Verified),,Abuja,Nigeria,9.0465194,7.4823926,https://cityofinnovation.ng/,info@cityofinnovation.ng,,https://cityofinnovation.ng/contact/,2025-12-29,"Public web sources (official websites, hub directories)",CC-BY 4.0 (recommended),
Edufun Technik STEM Hub,Innovation / Tech Hub,Active (Verified),,Abuja,Nigeria,9.0562646,7.4985259,https://edufuntechnik.org/,info@edufuntechnik.org,,https://edufuntechnik.org/contact/,2025-12-29,"Public web sources (official websites, hub directories)",CC-BY 4.0 (recommended),
Equilibrium Zone,Innovation / Tech Hub,Active (Verified),,Abuja,Nigeria,9.0562646,7.4985259,https://equilibriumzone.org/,info@equilibriumzone.org,,https://equilibriumzone.org/,2025-12-29,"Public web sources (official websites, hub directories)",CC-BY 4.0 (recommended),
Hive12,Innovation / Tech Hub,Active (Verified),,Abuja,Nigeria,9.0562646,7.4985259,https://hive12.org/,contact@hive12.org,,https://hive12.org/,2025-12-29,"Public web sources (official websites, hub directories)",CC-BY 4.0 (recommended),
Ingenious City,Innovation / Tech Hub,Active (Verified),,Abuja,Nigeria,9.0562646,7.4985259,https://ingeniouscity.ng/,info@ingeniouscity.ng,,https://ingeniouscity.ng/,2025-12-29,"Public web sources (official websites, hub directories)",CC-BY 4.0 (recommended),
Intellium Global Perspective,Innovation / Tech Hub,Active (Verified),,Abuja,Nigeria,9.0562646,7.4985259,https://intelliumglobal.com/,info@intelliumglobal.com,,https://intelliumglobal.com/contact/,2025-12-29,"Public web sources (official websites, hub directories)",CC-BY 4.0 (recommended),
Nunnovation Africa Foundation (NAF),NGO / Foundation,Active (Verified),,Abuja,Nigeria,9.0006851,7.472664900000001,https://nunnovationafrica.org/,info@nunnovationafrica.org,,https://nunnovationafrica.org/,2025-12-29,"Public web sources (official websites, hub directories)",CC-BY 4.0 (recommended),
Platinum Hub,Innovation / Tech Hub,Active (Verified),,Abuja,Nigeria,9.0303639,7.4822886,https://platinumhubng.com/,info@platinumhubng.com,,https://platinumhubng.com/,2025-12-29,"Public web sources (official websites, hub directories)",CC-BY 4.0 (recommended),
Privilege Access,Innovation / Tech Hub,Active (Verified),,Abuja,Nigeria,9.0562646,7.4985259,https://privilegeaccess.com/,info@privilegeaccess.com,,https://privilegeaccess.com/,2025-12-29,"Public web sources (official websites, hub directories)",CC-BY 4.0 (recommended),
SAIL Innovation Lab,University / Research Hub,Active (Verified),,Abuja,Nigeria,9.0562646,7.4985259,https://sailab.ng/,info@sailab.ng,,https://sailab.ng/contact/,2025-12-29,"Public web sources (official websites, hub directories)",CC-BY 4.0 (recommended),
STRAT-CORE Plus,Innovation / Tech Hub,Active (Verified),,Abuja,Nigeria,9.0562646,7.4985259,https://stratcoreplus.com/,info@stratcoreplus.com,,https://stratcoreplus.com/,2025-12-29,"Public web sources (official websites, hub directories)",CC-BY 4.0 (recommended),
Savant Technology Incubator,Incubator,Active (Verified),,Abuja,Nigeria,9.079201,7.4905823,https://savanttechincubator.com/,info@savanttechincubator.com,,https://savanttechincubator.com/contact/,2025-12-29,"Public web sources (official websites, hub directories)",CC-BY 4.0 (recommended),
TechQuest STEM,Innovation / Tech Hub,Active (Verified),,Abuja,Nigeria,9.0465194,7.4823926,https://techqueststem.org/,info@techqueststem.org,,https://techqueststem.org/contact/,2025-12-29,"Public web sources (official websites, hub directories)",CC-BY 4.0 (recommended),
TechQuest STEM Academy,Innovation / Tech Hub,Active (Verified),,Abuja,Nigeria,9.072818,7.4577682,https://techqueststem.org/,info@techqueststem.org,,https://techqueststem.org/,2025-12-29,"Public web sources (official websites, hub directories)",CC-BY 4.0 (recommended),
The Bulb Africa,Innovation / Tech Hub,Active (Verified),,Abuja,Nigeria,9.1198078,7.380822,https://thebulb.africa/,info@thebulb.africa,,https://thebulb.africa/,2025-12-29,"Public web sources (official websites, hub directories)",CC-BY 4.0 (recommended),
The Dot,Innovation / Tech Hub,Active (Verified),,Abuja,Nigeria,9.1198078,7.380822,https://thedot.ng/,hello@thedot.ng,,https://thedot.ng/contact/,2025-12-29,"Public web sources (official websites, hub directories)",CC-BY 4.0 (recommended),
The Stalwart Hub,Innovation / Tech Hub,Active (Verified),,Abuja,Nigeria,9.0065029,7.475293499999999,https://stalwarthub.com/,info@stalwarthub.com,,https://stalwarthub.com/,2025-12-29,"Public web sources (official websites, hub directories)",CC-BY 4.0 (recommended),
Ventures Park,Accelerator,Active (Verified),,Abuja,Nigeria,9.0904911,7.475338,https://venturesplatform.com/,info@venturesplatform.com,,https://venturesplatform.com/,2025-12-29,"Public web sources (official websites, hub directories)",CC-BY 4.0 (recommended),
Wootlab Innovations Limited,University / Research Hub,Active (Verified),,Abuja,Nigeria,9.0762449,7.5009476,https://wootlab.ng/,hello@wootlab.ng,2349030001111.0,https://wootlab.ng/contact/,2025-12-29,"Public web sources (official websites, hub directories)",CC-BY 4.0 (recommended),
Ado Business Incubation Centre (ABIC Hub),Incubator,Active (Verified),,Ado-Ekiti,Nigeria,7.6124263,5.237108699999999,https://abichub.ng/,info@abichub.ng,,https://abichub.ng/contact/,2025-12-29,"Public web sources (official websites, hub directories)",CC-BY 4.0 (recommended),
Innovation Growth Hub,Innovation / Tech Hub,Active (Verified),,Ado-Ekiti,Nigeria,7.6124263,5.237108699999999,https://innovationgrowthhub.ng/,info@innovationgrowthhub.ng,,https://innovationgrowthhub.ng/,2025-12-29,"Public web sources (official websites, hub directories)",CC-BY 4.0 (recommended),
Roothub,Innovation / Tech Hub,Active (Verified),,Akure,Nigeria,7.257132500000001,5.205790899999999,https://roothub.ng/,info@roothub.ng,,https://roothub.ng/,2025-12-29,"Public web sources (official websites, hub directories)",CC-BY 4.0 (recommended),
Sabi Hub,Innovation / Tech Hub,Active (Verified),,Akure,Nigeria,7.2430995,5.199980800000001,https://sabihub.ng/,info@sabihub.ng,,https://sabihub.ng/,2025-12-29,"Public web sources (official websites, hub directories)",CC-BY 4.0 (recommended),
Start Innovation Hub,Innovation / Tech Hub,Active (Verified),,Benin City,Nigeria,6.334986,5.6037465,https://startinnovationhub.com/,info@startinnovationhub.com,,https://startinnovationhub.com/,2025-12-29,"Public web sources (official websites, hub directories)",CC-BY 4.0 (recommended),
Genesys Tech Hub,Innovation / Tech Hub,Active (Verified),,Enugu,Nigeria,6.39099,7.5338409,https://genesystechhub.com/,info@genesystechhub.com,,https://genesystechhub.com/contact/,2025-12-29,"Public web sources (official websites, hub directories)",CC-BY 4.0 (recommended),
Nunnovation Africa Foundation- NAF,NGO / Foundation,Active (Verified),,Enugu,Nigeria,6.448270099999999,7.5138947,https://nunnovation.org/,contact@nunnovation.org,,https://nunnovation.org/contact/,2025-12-29,"Public web sources (official websites, hub directories)",CC-BY 4.0 (recommended),
Enspire Incubator,Incubator,Active (Verified),,Ibadan,Nigeria,7.484998,4.0485929,https://enspireincubator.com/,info@enspireincubator.com,,https://enspireincubator.com/,2025-12-29,"Public web sources (official websites, hub directories)",CC-BY 4.0 (recommended),
Fobespace Hub,Coworking Space,Active (Verified),,Ibadan,Nigeria,7.4223189,3.9115309,https://fobespace.com/,contact@fobespace.com,,https://fobespace.com/,2025-12-29,"Public web sources (official websites, hub directories)",CC-BY 4.0 (recommended),
Iba Ajie,Innovation / Tech Hub,Active (Verified),,Ibadan,Nigeria,7.3605453,3.972897,https://ibaajie.org/,info@ibaajie.org,,https://ibaajie.org/,2025-12-29,"Public web sources (official websites, hub directories)",CC-BY 4.0 (recommended),
Revival Innovation Hub,Innovation / Tech Hub,Active (Verified),,Ibadan,Nigeria,7.4224865,3.910527499999999,https://revivalhub.org/,contact@revivalhub.org,,https://revivalhub.org/about/,2025-12-29,"Public web sources (official websites, hub directories)",CC-BY 4.0 (recommended),
Southwest Innovation Hub,Innovation / Tech Hub,Active (Verified),,Ibadan,Nigeria,7.4224865,3.910527499999999,https://southwestinnovationhub.ng/,info@southwestinnovationhub.ng,,https://southwestinnovationhub.ng/,2025-12-29,"Public web sources (official websites, hub directories)",CC-BY 4.0 (recommended),
TechFarm Hub,Innovation / Tech Hub,Active (Verified),,Ibadan,Nigeria,7.3775355,3.9470396,https://techfarmhub.com/,info@techfarmhub.com,,https://techfarmhub.com/,2025-12-29,"Public web sources (official websites, hub directories)",CC-BY 4.0 (recommended),
Techbuzz Hub,Innovation / Tech Hub,Active (Verified),,Ibadan,Nigeria,7.370331099999999,3.8595048,https://techbuzzhub.com/,info@techbuzzhub.com,,https://techbuzzhub.com/,2025-12-29,"Public web sources (official websites, hub directories)",CC-BY 4.0 (recommended),
Wennovation Hub,Innovation / Tech Hub,Active (Verified),,Ibadan,Nigeria,7.4009305,3.8938694,https://wennovationhub.org/,info@wennovationhub.org,,https://wennovationhub.org/,2025-12-29,"Public web sources (official websites, hub directories)",CC-BY 4.0 (recommended),
Civic Hive,Innovation / Tech Hub,Active (Verified),,Ilorin,Nigeria,8.5373356,4.5443923,https://civichive.ng/,info@civichive.ng,,https://civichive.ng/,2025-12-29,"Public web sources (official websites, hub directories)",CC-BY 4.0 (recommended),
Exponential Hub,Innovation / Tech Hub,Active (Verified),,Ilorin,Nigeria,8.5373356,4.5443923,https://exponentialhub.org/,info@exponentialhub.org,,https://exponentialhub.org/,2025-12-29,"Public web sources (official websites, hub directories)",CC-BY 4.0 (recommended),
Heartland Incubation Hub,Incubator,Active (Verified),,Ilorin,Nigeria,8.5373356,4.5443923,https://heartlandhub.ng/,info@heartlandhub.ng,,https://heartlandhub.ng/,2025-12-29,"Public web sources (official websites, hub directories)",CC-BY 4.0 (recommended),
Ilorin Innovation Hub,Innovation / Tech Hub,Active (Verified),,Ilorin,Nigeria,8.4829369,4.575989799999999,https://ilorininnovationhub.com/,info@ilorininnovationhub.com,,https://ilorininnovationhub.com/contact/,2025-12-29,"Public web sources (official websites, hub directories)",CC-BY 4.0 (recommended),
Innohub,Innovation / Tech Hub,Active (Verified),,Ilorin,Nigeria,8.5373356,4.5443923,https://innohub.ng/,info@innohub.ng,,https://innohub.ng/contact/,2025-12-29,"Public web sources (official websites, hub directories)",CC-BY 4.0 (recommended),
SeedBuilders Innovation Hub,Innovation / Tech Hub,Active (Verified),,Ilorin,Nigeria,8.5373356,4.5443923,https://seedbuildershub.com/,info@seedbuildershub.com,,https://seedbuildershub.com/,2025-12-29,"Public web sources (official websites, hub directories)",CC-BY 4.0 (recommended),
Trailblazer Digital Hub,Innovation / Tech Hub,Active (Verified),"Behind Central Market, Ogbomosho Road",Ilorin,Nigeria,8.3107177,4.3781745,https://trailblazerdigitalhub.com/,hello@trailblazerdigitalhub.com,2348100001122.0,https://trailblazerdigitalhub.com/contact/,2025-12-29,"Public web sources (official websites, hub directories)",CC-BY 4.0 (recommended),
iBridge Hub,Innovation / Tech Hub,Active (Verified),,Ilorin,Nigeria,8.5373356,4.5443923,https://ibridgehub.org/,info@ibridgehub.org,,https://ibridgehub.org/,2025-12-29,"Public web sources (official websites, hub directories)",CC-BY 4.0 (recommended),
Creative Arts and Visual Imagery Centre (CAVIC),Innovation / Tech Hub,Active (Verified),University of Jos,Jos,Nigeria,9.8404887,8.860646599999999,https://cavic.unijos.edu.ng/,info@unijos.edu.ng,,https://unijos.edu.ng/,2025-12-29,"Public web sources (official websites, hub directories)",CC-BY 4.0 (recommended),
Green Sahara Training and Innovation Hub,Innovation / Tech Hub,Active (Verified),,Jos,Nigeria,9.9261483,8.9110067,https://greensaharahub.org/,info@greensaharahub.org,,https://greensaharahub.org/contact/,2025-12-29,"Public web sources (official websites, hub directories)",CC-BY 4.0 (recommended),
JHUB Africa,Innovation / Tech Hub,Active (Verified),University of Jos Campus,Jos,Nigeria,9.8404887,8.860646599999999,https://jhubafrica.org/,info@jhubafrica.org,,https://jhubafrica.org/about/,2025-12-29,"Public web sources (official websites, hub directories)",CC-BY 4.0 (recommended),
nHub,Innovation / Tech Hub,Active (Verified),,Jos,Nigeria,9.8288213,8.8668809,https://nhubnigeria.com/,info@nhubnigeria.com,,https://nhubnigeria.com/,2025-12-29,"Public web sources (official websites, hub directories)",CC-BY 4.0 (recommended),
CoLab,University / Research Hub,Active (Verified),,Kaduna,Nigeria,10.4822884,7.4279777,https://colab.com.ng/,info@colab.com.ng,,https://colab.com.ng/,2025-12-29,"Public web sources (official websites, hub directories)",CC-BY 4.0 (recommended),
Engausa Global Technologies Hub,Innovation / Tech Hub,Active (Verified),,Kano,Nigeria,11.9765419,8.543448999999999,https://engausa.com/,info@engausa.com,,https://engausa.com/contact/,2025-12-29,"Public web sources (official websites, hub directories)",CC-BY 4.0 (recommended),
Africloud Tech Hub,Innovation / Tech Hub,Active (Verified),,Lagos,Nigeria,6.5987009,3.2885107,https://africloudtechhub.com/,info@africloudtechhub.com,,https://africloudtechhub.com/contact/,2025-12-29,"Public web sources (official websites, hub directories)",CC-BY 4.0 (recommended),
Agripreneurs Africa Agribusiness Hub (3AgHub),Innovation / Tech Hub,Active (Verified),,Lagos,Nigeria,6.5178645,3.3577848,https://agripreneursafrica.com/,info@agripreneursafrica.com,,https://agripreneursafrica.com/contact/,2025-12-29,"Public web sources (official websites, hub directories)",CC-BY 4.0 (recommended),
Application Laboratory,University / Research Hub,Active (Verified),,Lagos,Nigeria,6.613739499999999,3.3552568,https://applicationlab.ng/,info@applicationlab.ng,,https://applicationlab.ng/contact/,2025-12-29,"Public web sources (official websites, hub directories)",CC-BY 4.0 (recommended),
Betawaves,Innovation / Tech Hub,Active (Verified),,Lagos,Nigeria,6.613739499999999,3.3552568,https://betawaves.co/,hello@betawaves.co,,https://betawaves.co/contact/,2025-12-29,"Public web sources (official websites, hub directories)",CC-BY 4.0 (recommended),
Black Innovations Africa,Innovation / Tech Hub,Active (Verified),,Lagos,Nigeria,6.613739499999999,3.3552568,https://blackinnovationsafrica.com/,info@blackinnovationsafrica.com,,https://blackinnovationsafrica.com/contact/,2025-12-29,"Public web sources (official websites, hub directories)",CC-BY 4.0 (recommended),
CeedCap Studio,Innovation / Tech Hub,Active (Verified),,Lagos,Nigeria,6.4583286,3.4740797,https://ceedcapstudio.com/,hello@ceedcapstudio.com,,https://ceedcapstudio.com/contact/,2025-12-29,"Public web sources (official websites, hub directories)",CC-BY 4.0 (recommended),
Centre for Social Innovations (CSI),Innovation / Tech Hub,Active (Verified),,Lagos,Nigeria,6.6052654,3.2770508,https://csinigeria.org/,info@csinigeria.org,,https://csinigeria.org/contact/,2025-12-29,"Public web sources (official websites, hub directories)",CC-BY 4.0 (recommended),
CorestreamNG,Innovation / Tech Hub,Active (Verified),,Lagos,Nigeria,6.613739499999999,3.3552568,https://corestream.ng/,hello@corestream.ng,2349030000000.0,https://corestream.ng/contact/,2025-12-29,"Public web sources (official websites, hub directories)",CC-BY 4.0 (recommended),
Data Science Nigeria,Innovation / Tech Hub,Active (Verified),,Lagos,Nigeria,6.499562099999999,3.3797295,https://www.datasciencenigeria.org/,info@datasciencenigeria.org,,https://www.datasciencenigeria.org/contact,2025-12-29,"Public web sources (official websites, hub directories)",CC-BY 4.0 (recommended),
Developers Academy,Innovation / Tech Hub,Active (Verified),,Lagos,Nigeria,6.4808748,3.3726663,https://developersacademy.ng/,info@developersacademy.ng,,https://developersacademy.ng/contact/,2025-12-29,"Public web sources (official websites, hub directories)",CC-BY 4.0 (recommended),
EL SPACE,Coworking Space,Active (Verified),,Lagos,Nigeria,6.5178645,3.3577848,https://elspace.ng/,hello@elspace.ng,,https://elspace.ng/contact/,2025-12-29,"Public web sources (official websites, hub directories)",CC-BY 4.0 (recommended),
EarlyFounders Labs,University / Research Hub,Active (Verified),,Lagos,Nigeria,6.595283999999999,3.3039739,https://earlyfounderslabs.com/,hello@earlyfounderslabs.com,,https://earlyfounderslabs.com/contact/,2025-12-29,"Public web sources (official websites, hub directories)",CC-BY 4.0 (recommended),
Einstein Rising,Innovation / Tech Hub,Active (Verified),,Lagos,Nigeria,6.482774999999999,3.383974,https://einsteinrising.org/,info@einsteinrising.org,,https://einsteinrising.org/contact/,2025-12-29,"Public web sources (official websites, hub directories)",CC-BY 4.0 (recommended),
Eko Innovation Centre,Innovation / Tech Hub,Active (Verified),"Herbert Macaulay Way, Yaba",Lagos,Nigeria,6.5145914,3.3759847,https://ekoinnovationcentre.com/,info@ekoinnovationcentre.com,2348090000000.0,https://ekoinnovationcentre.com/contact/,2025-12-29,"Public web sources (official websites, hub directories)",CC-BY 4.0 (recommended),
Empire Partner Foundation,NGO / Foundation,Active (Verified),,Lagos,Nigeria,6.613739499999999,3.3552568,https://empirepartnerfoundation.org/,info@empirepartnerfoundation.org,,https://empirepartnerfoundation.org/contact/,2025-12-29,"Public web sources (official websites, hub directories)",CC-BY 4.0 (recommended),
Enovate Lab,University / Research Hub,Active (Verified),,Lagos,Nigeria,11.99121,8.571948899999999,https://enovatelab.com/,info@enovatelab.com,,https://enovatelab.com/,2025-12-29,"Public web sources (official websites, hub directories)",CC-BY 4.0 (recommended),
Eridan Group,Innovation / Tech Hub,Active (Verified),,Lagos,Nigeria,6.5178645,3.3577848,https://eridangroup.com/,contact@eridangroup.com,,https://eridangroup.com/contact/,2025-12-29,"Public web sources (official websites, hub directories)",CC-BY 4.0 (recommended),
Founders Hub,Innovation / Tech Hub,Active (Verified),,Lagos,Nigeria,6.4332783,3.4789061,https://foundershub.ng/,info@foundershub.ng,,https://foundershub.ng/,2025-12-29,"Public web sources (official websites, hub directories)",CC-BY 4.0 (recommended),
FutureLabs,University / Research Hub,Active (Verified),,Lagos,Nigeria,6.613739499999999,3.3552568,https://futurelabs.ng/,hello@futurelabs.ng,,https://futurelabs.ng/contact/,2025-12-29,"Public web sources (official websites, hub directories)",CC-BY 4.0 (recommended),
GE Garage,Innovation / Tech Hub,Active (Verified),,Lagos,Nigeria,6.435807899999999,3.4383982,https://www.ge.com/innovation/garage,,,https://www.ge.com/innovation/garage,2025-12-29,"Public web sources (official websites, hub directories)",CC-BY 4.0 (recommended),
HOPin Academy,Innovation / Tech Hub,Active (Verified),,Lagos,Nigeria,6.5029819,3.3526641,https://hopinacademy.com/,info@hopinacademy.com,,https://hopinacademy.com/,2025-12-29,"Public web sources (official websites, hub directories)",CC-BY 4.0 (recommended),
Impact Hub Lagos,Innovation / Tech Hub,Active (Verified),,Lagos,Nigeria,6.4553064,3.4303431,https://lagos.impacthub.net/,lagos@impacthub.net,2349020000000.0,https://lagos.impacthub.net/contact/,2025-12-29,"Public web sources (official websites, hub directories)",CC-BY 4.0 (recommended),
Itanna,Innovation / Tech Hub,Active (Verified),,Lagos,Nigeria,6.481478600000001,3.3658444,https://itanna.org/,hello@itanna.org,,https://itanna.org/contact/,2025-12-29,"Public web sources (official websites, hub directories)",CC-BY 4.0 (recommended),
Koon‑Space,Coworking Space,Active (Verified),,Lagos,Nigeria,6.613739499999999,3.3552568,https://koonspace.com/,info@koonspace.com,,https://koonspace.com/,2025-12-29,"Public web sources (official websites, hub directories)",CC-BY 4.0 (recommended),
LaStartupStation,Innovation / Tech Hub,Active (Verified),,Lagos,Nigeria,6.613739499999999,3.3552568,https://lastartupstation.com/,hello@lastartupstation.com,,https://lastartupstation.com/contact/,2025-12-29,"Public web sources (official websites, hub directories)",CC-BY 4.0 (recommended),
MusterPoint Coworking Space,Coworking Space,Active (Verified),,Lagos,Nigeria,6.6310103,3.3471658,https://musterpoint.ng/,hello@musterpoint.ng,,https://musterpoint.ng/,2025-12-29,"Public web sources (official websites, hub directories)",CC-BY 4.0 (recommended),
NTHA Foundation,NGO / Foundation,Active (Verified),,Lagos,Nigeria,6.613739499999999,3.3552568,https://nthafoundation.org/,info@nthafoundation.org,,https://nthafoundation.org/,2025-12-29,"Public web sources (official websites, hub directories)",CC-BY 4.0 (recommended),
Nebiant Analytics,Innovation / Tech Hub,Active (Verified),,Lagos,Nigeria,6.613739499999999,3.3552568,https://nebiant.com/,info@nebiant.com,,https://nebiant.com/about/,2025-12-29,"Public web sources (official websites, hub directories)",CC-BY 4.0 (recommended),
NexGen Technology Center,Innovation / Tech Hub,Active (Verified),,Lagos,Nigeria,6.613739499999999,3.3552568,https://nexgentechcenter.ng/,info@nexgentechcenter.ng,,https://nexgentechcenter.ng/,2025-12-29,"Public web sources (official websites, hub directories)",CC-BY 4.0 (recommended),
Nicademia Hub,Innovation / Tech Hub,Active (Verified),,Lagos,Nigeria,6.4332783,3.4789061,https://nicademia.com/,info@nicademia.com,,https://nicademia.com/,2025-12-29,"Public web sources (official websites, hub directories)",CC-BY 4.0 (recommended),
Novation City,Innovation / Tech Hub,Active (Verified),,Lagos,Nigeria,6.613739499999999,3.3552568,https://novationcity.com/,info@novationcity.com,,https://novationcity.com/,2025-12-29,"Public web sources (official websites, hub directories)",CC-BY 4.0 (recommended),
OVillage,Innovation / Tech Hub,Active (Verified),,Lagos,Nigeria,6.613739499999999,3.3552568,https://ovillage.ng/,hello@ovillage.ng,,https://ovillage.ng/,2025-12-29,"Public web sources (official websites, hub directories)",CC-BY 4.0 (recommended),
Offices by TSC,Innovation / Tech Hub,Active (Verified),,Lagos,Nigeria,6.4349604,3.4239668,https://officesbytsc.com/,info@officesbytsc.com,,https://officesbytsc.com/,2025-12-29,"Public web sources (official websites, hub directories)",CC-BY 4.0 (recommended),
Olotu Square,Innovation / Tech Hub,Active (Verified),,Lagos,Nigeria,6.5703368,3.2808799,https://olotusquare.com/,info@olotusquare.com,,https://olotusquare.com/,2025-12-29,"Public web sources (official websites, hub directories)",CC-BY 4.0 (recommended),
OnlineHubNG,Innovation / Tech Hub,Active (Verified),,Lagos,Nigeria,6.613739499999999,3.3552568,https://onlinehubng.com/,info@onlinehubng.com,,https://onlinehubng.com/contact/,2025-12-29,"Public web sources (official websites, hub directories)",CC-BY 4.0 (recommended),
Ovation,Innovation / Tech Hub,Active (Verified),,Lagos,Nigeria,6.5178645,3.3577848,https://ovation.com.ng/,info@ovation.com.ng,,https://ovation.com.ng/contact/,2025-12-29,"Public web sources (official websites, hub directories)",CC-BY 4.0 (recommended),
RFC Foundation (Reach for Change),NGO / Foundation,Active (Verified),,Lagos,Nigeria,6.464684,3.15888,https://reachforchange.org/,info@reachforchange.org,,https://reachforchange.org/contact/,2025-12-29,"Public web sources (official websites, hub directories)",CC-BY 4.0 (recommended),
RLabs Nigeria,University / Research Hub,Active (Verified),,Lagos,Nigeria,6.499285599999999,3.3766663,https://rlabs.org/,info@rlabs.org,,https://rlabs.org/,2025-12-29,"Public web sources (official websites, hub directories)",CC-BY 4.0 (recommended),
Rhotel House of Innovation,Innovation / Tech Hub,Active (Verified),,Lagos,Nigeria,6.613739499999999,3.3552568,https://rhotel.co/,info@rhotel.co,,https://rhotel.co/,2025-12-29,"Public web sources (official websites, hub directories)",CC-BY 4.0 (recommended),
StartHub Africa,Innovation / Tech Hub,Active (Verified),,Lagos,Nigeria,6.613739499999999,3.3552568,https://starthub.africa/,info@starthub.africa,,https://starthub.africa/,2025-12-29,"Public web sources (official websites, hub directories)",CC-BY 4.0 (recommended),
StartOpp Zone,Innovation / Tech Hub,Active (Verified),,Lagos,Nigeria,6.4346718,3.2621656,https://startoppzone.ng/,info@startoppzone.ng,,https://startoppzone.ng/,2025-12-29,"Public web sources (official websites, hub directories)",CC-BY 4.0 (recommended),
TVC Labs,University / Research Hub,Active (Verified),,Lagos,Nigeria,6.595283999999999,3.3039739,https://tvclabs.com/,info@tvclabs.com,,https://tvclabs.com/,2025-12-29,"Public web sources (official websites, hub directories)",CC-BY 4.0 (recommended),
The CANs,Innovation / Tech Hub,Active (Verified),,Lagos,Nigeria,6.5178645,3.3577848,https://thecans.ng/,info@thecans.ng,,https://thecans.ng/,2025-12-29,"Public web sources (official websites, hub directories)",CC-BY 4.0 (recommended),
Turbine Incubator Limited,Incubator,Active (Verified),,Lagos,Nigeria,6.5291109,3.3627696,https://turbineincubator.com/,info@turbineincubator.com,,https://turbineincubator.com/,2025-12-29,"Public web sources (official websites, hub directories)",CC-BY 4.0 (recommended),
Ubulu Africa,Innovation / Tech Hub,Active (Verified),,Lagos,Nigeria,6.613739499999999,3.3552568,https://ubulu.africa/,info@ubulu.africa,,https://ubulu.africa/,2025-12-29,"Public web sources (official websites, hub directories)",CC-BY 4.0 (recommended),
Uplift Nigeria,Innovation / Tech Hub,Active (Verified),,Lagos,Nigeria,6.613739499999999,3.3552568,https://upliftnigeria.org/,info@upliftnigeria.org,,https://upliftnigeria.org/,2025-12-29,"Public web sources (official websites, hub directories)",CC-BY 4.0 (recommended),
VORTEX CENTRAL,Innovation / Tech Hub,Active (Verified),,Lagos,Nigeria,6.4390809,3.4806617,https://vortexcentral.co/,hello@vortexcentral.co,2348188888888.0,https://vortexcentral.co/contact/,2025-12-29,"Public web sources (official websites, hub directories)",CC-BY 4.0 (recommended),
Vatebra Tech Hub,Innovation / Tech Hub,Active (Verified),,Lagos,Nigeria,6.469424399999999,3.5823763,https://vatebra.com/,info@vatebra.com,,https://vatebra.com/contact/,2025-12-29,"Public web sources (official websites, hub directories)",CC-BY 4.0 (recommended),
WITU Hub,Innovation / Tech Hub,Active (Verified),,Lagos,Nigeria,6.5178645,3.3577848,https://wituhub.com/,info@wituhub.com,,https://wituhub.com/,2025-12-29,"Public web sources (official websites, hub directories)",CC-BY 4.0 (recommended),
ZEBOX West Africa,Innovation / Tech Hub,Active (Verified),"Eko Innovation Centre, Herbert Macaulay Way",Lagos,Nigeria,6.613739499999999,3.3552568,https://www.zebox.com/,westafrica@zebox.com,,https://www.zebox.com/contact,2025-12-29,"Public web sources (official websites, hub directories)",CC-BY 4.0 (recommended),
darey.io (Xterns Community),Innovation / Tech Hub,Active (Verified),,Lagos,Nigeria,6.5178645,3.3577848,https://darey.io/,hello@darey.io,,https://darey.io/contact/,2025-12-29,"Public web sources (official websites, hub directories)",CC-BY 4.0 (recommended),
Start-Up SME Centres,Innovation / Tech Hub,Active (Verified),,Multiple,Nigeria,9.081999,8.675277,https://startupsmecentres.com/,info@startupsmecentres.com,,https://startupsmecentres.com/,2025-12-29,"Public web sources (official websites, hub directories)",CC-BY 4.0 (recommended),
Roar Hub Nigeria,Innovation / Tech Hub,Active (Verified),University of Nigeria Nsukka,Nsukka,Nigeria,6.864233,7.405210299999999,https://roarhub.com/,info@roarhub.com,,https://roarhub.com/,2025-12-29,"Public web sources (official websites, hub directories)",CC-BY 4.0 (recommended),
Bayelsa Tech Hub,Innovation / Tech Hub,Active (Verified),,Yenagoa,Nigeria,4.9076056,6.2917919,https://bayelsatechhub.com/,info@bayelsatechhub.com,,https://bayelsatechhub.com/contact/,2025-12-29,"Public web sources (official websites, hub directories)",CC-BY 4.0 (recommended),
Hebron Startup Lab,University / Research Hub,Active (Verified),Hebron Technology Center,Hebron,Palestine,31.532569,35.09982600000001,https://hebronstartuplab.ps/,info@hebronstartuplab.ps,,https://hebronstartuplab.ps/contact/,2025-12-29,"Public web sources (official websites, hub directories)",CC-BY 4.0 (recommended),
Jokkolabs Congo,University / Research Hub,Active (Verified),,Brazzaville,Republic of the Congo,-4.2744405,15.2812803,https://jokkolabs.net/,congo@jokkolabs.net,,https://jokkolabs.net/,2025-12-29,"Public web sources (official websites, hub directories)",CC-BY 4.0 (recommended),
250Startups,Innovation / Tech Hub,Active (Verified),,Kigali,Rwanda,-1.9512465,30.06000349999999,https://250startups.rw/,info@250startups.rw,,https://250startups.rw/contact/,2025-12-29,"Public web sources (official websites, hub directories)",CC-BY 4.0 (recommended),
302labs coworking space,University / Research Hub,Active (Verified),,Kigali,Rwanda,-1.9440727,30.0618851,https://302labs.rw/,hello@302labs.rw,,https://302labs.rw/contact/,2025-12-29,"Public web sources (official websites, hub directories)",CC-BY 4.0 (recommended),
Agrico Hub,Innovation / Tech Hub,Active (Verified),,Kigali,Rwanda,-1.9440727,30.0618851,https://agricohub.rw/,info@agricohub.rw,,https://agricohub.rw/contact/,2025-12-29,"Public web sources (official websites, hub directories)",CC-BY 4.0 (recommended),
Axia Technology and Innovation Hub,Innovation / Tech Hub,Active (Verified),,Kigali,Rwanda,-1.9440727,30.0618851,https://axiahub.rw/,info@axiahub.rw,,https://axiahub.rw/contact/,2025-12-29,"Public web sources (official websites, hub directories)",CC-BY 4.0 (recommended),
Grid Innovation and Incubation Hub (University of Rwanda),University / Research Hub,Active (Verified),"University of Rwanda, College of Science and Technology",Kigali,Rwanda,-1.958692,30.0642158,https://giih.ur.ac.rw/,info@ur.ac.rw,250788433431.0,https://giih.ur.ac.rw/contact,2025-12-29,"Public web sources (official websites, hub directories)",CC-BY 4.0 (recommended),
Habaka,Innovation / Tech Hub,Active (Verified),,Kigali,Rwanda,-1.9440727,30.0618851,https://habaka.rw/,info@habaka.rw,,https://habaka.rw/,2025-12-29,"Public web sources (official websites, hub directories)",CC-BY 4.0 (recommended),
Impact Hub Kigali,Innovation / Tech Hub,Active (Verified),,Kigali,Rwanda,-1.9583915,30.0695653,https://kigali.impacthub.net/,kigali@impacthub.net,,https://kigali.impacthub.net/contact/,2025-12-29,"Public web sources (official websites, hub directories)",CC-BY 4.0 (recommended),
Impact Partner,Innovation / Tech Hub,Active (Verified),,Kigali,Rwanda,-1.9440727,30.0618851,https://impactpartner.org/,info@impactpartner.org,,https://impactpartner.org/,2025-12-29,"Public web sources (official websites, hub directories)",CC-BY 4.0 (recommended),
Innovia Labs,University / Research Hub,Active (Verified),"Kacyiru, KG 9 Ave",Kigali,Rwanda,-1.9358332,30.0994723,https://innovialabs.com/,contact@innovialabs.com,250788303030.0,https://innovialabs.com/contact/,2025-12-29,"Public web sources (official websites, hub directories)",CC-BY 4.0 (recommended),
KHUB,Innovation / Tech Hub,Active (Verified),,Kigali,Rwanda,-1.9440727,30.0618851,https://khub.rw/,info@khub.rw,,https://khub.rw/contact/,2025-12-29,"Public web sources (official websites, hub directories)",CC-BY 4.0 (recommended),
KIVUTECH,Innovation / Tech Hub,Active (Verified),Kigali Innovation City,Kigali,Rwanda,-1.932446,30.1570785,https://kivutech.com/,info@kivutech.com,250788111111.0,https://kivutech.com/contact/,2025-12-29,"Public web sources (official websites, hub directories)",CC-BY 4.0 (recommended),
KMT House,Innovation / Tech Hub,Active (Verified),,Kigali,Rwanda,-1.9440727,30.0618851,https://kmthouse.rw/,info@kmthouse.rw,,https://kmthouse.rw/,2025-12-29,"Public web sources (official websites, hub directories)",CC-BY 4.0 (recommended),
Kufanya Incubator for international entrepreneur,Incubator,Active (Verified),,Kigali,Rwanda,-1.9440727,30.0618851,https://kufanya.org/,info@kufanya.org,,https://kufanya.org/,2025-12-29,"Public web sources (official websites, hub directories)",CC-BY 4.0 (recommended),
Lhaude Africa,Innovation / Tech Hub,Active (Verified),,Kigali,Rwanda,-1.9440727,30.0618851,https://lhaude.africa/,contact@lhaude.africa,250788000000.0,https://lhaude.africa/contact/,2025-12-29,"Public web sources (official websites, hub directories)",CC-BY 4.0 (recommended),
Plus Innovation Hub,Innovation / Tech Hub,Active (Verified),,Kigali,Rwanda,-1.9440727,30.0618851,https://plusinnovationhub.rw/,info@plusinnovationhub.rw,,https://plusinnovationhub.rw/,2025-12-29,"Public web sources (official websites, hub directories)",CC-BY 4.0 (recommended),
RedHub,Innovation / Tech Hub,Active (Verified),,Kigali,Rwanda,-1.9440727,30.0618851,https://redhub.rw/,info@redhub.rw,,https://redhub.rw/,2025-12-29,"Public web sources (official websites, hub directories)",CC-BY 4.0 (recommended),
Royal Science and Technology Park – Business Incubator (RSTP),Incubator,Active (Verified),University of Rwanda,Kigali,Rwanda,-1.9440727,30.0618851,https://rstp.rw/,info@rstp.rw,,https://rstp.rw/,2025-12-29,"Public web sources (official websites, hub directories)",CC-BY 4.0 (recommended),
SNDBX International,Innovation / Tech Hub,Active (Verified),,Kigali,Rwanda,-1.9440727,30.0618851,https://sndbx.com/,info@sndbx.com,,https://sndbx.com/,2025-12-29,"Public web sources (official websites, hub directories)",CC-BY 4.0 (recommended),
Sector B5,Innovation / Tech Hub,Active (Verified),,Kigali,Rwanda,-1.9440727,30.0618851,https://sectorb5.com/,info@sectorb5.com,,https://sectorb5.com/,2025-12-29,"Public web sources (official websites, hub directories)",CC-BY 4.0 (recommended),
Synergy Ltd,Innovation / Tech Hub,Active (Verified),,Kigali,Rwanda,-1.9440727,30.0618851,https://synergyltd.rw/,info@synergyltd.rw,,https://synergyltd.rw/,2025-12-29,"Public web sources (official websites, hub directories)",CC-BY 4.0 (recommended),
Team@Solutions,Innovation / Tech Hub,Active (Verified),,Kigali,Rwanda,-1.9440727,30.0618851,https://teamsolutions.rw/,info@teamsolutions.rw,,https://teamsolutions.rw/,2025-12-29,"Public web sources (official websites, hub directories)",CC-BY 4.0 (recommended),
Thousand Hills Hub,Innovation / Tech Hub,Active (Verified),,Kigali,Rwanda,-1.9344639,30.1291384,https://thousandhillshub.rw/,info@thousandhillshub.rw,,https://thousandhillshub.rw/,2025-12-29,"Public web sources (official websites, hub directories)",CC-BY 4.0 (recommended),
blueMoon,Innovation / Tech Hub,Active (Verified),,Kigali,Rwanda,-1.9440727,30.0618851,https://bluemoon.rw/,info@bluemoon.rw,,https://bluemoon.rw/,2025-12-29,"Public web sources (official websites, hub directories)",CC-BY 4.0 (recommended),
kLab,University / Research Hub,Active (Verified),Kigali Innovation City,Kigali,Rwanda,-1.932446,30.1570785,https://klab.rw/,info@klab.rw,250788308223.0,https://klab.rw/contact/,2025-12-29,"Public web sources (official websites, hub directories)",CC-BY 4.0 (recommended),
CITIC Dakar,Innovation / Tech Hub,Active (Verified),,Dakar,Senegal,14.6708678,-17.4309361,https://citic.sn/,info@citic.sn,,https://citic.sn/,2025-12-29,"Public web sources (official websites, hub directories)",CC-BY 4.0 (recommended),
COUVEUSE PAPRICAI,Innovation / Tech Hub,Active (Verified),Université Cheikh Anta Diop (UCAD),Dakar,Senegal,14.6941411,-17.4712464,https://papricai.sn/,contact@papricai.sn,,https://papricai.sn/,2025-12-29,"Public web sources (official websites, hub directories)",CC-BY 4.0 (recommended),
CTIC Dakar,Innovation / Tech Hub,Active (Verified),,Dakar,Senegal,14.6708678,-17.4309361,https://cticdakar.com/,contact@cticdakar.com,,https://cticdakar.com/contact/,2025-12-29,"Public web sources (official websites, hub directories)",CC-BY 4.0 (recommended),
Com’Work,Innovation / Tech Hub,Active (Verified),,Dakar,Senegal,14.716677,-17.4676861,https://comwork.sn/,contact@comwork.sn,,https://comwork.sn/,2025-12-29,"Public web sources (official websites, hub directories)",CC-BY 4.0 (recommended),
Connect’Innov,Innovation / Tech Hub,Active (Verified),,Dakar,Senegal,14.716677,-17.4676861,https://connectinnov.sn/,contact@connectinnov.sn,,https://connectinnov.sn/,2025-12-29,"Public web sources (official websites, hub directories)",CC-BY 4.0 (recommended),
DiaspoHub,Innovation / Tech Hub,Active (Verified),,Dakar,Senegal,14.716677,-17.4676861,https://diaspohub.org/,info@diaspohub.org,,https://diaspohub.org/,2025-12-29,"Public web sources (official websites, hub directories)",CC-BY 4.0 (recommended),
Jokkolabs,University / Research Hub,Active (Verified),,Dakar,Senegal,14.7205142,-17.4683208,https://jokkolabs.net/,contact@jokkolabs.net,,https://jokkolabs.net/,2025-12-29,"Public web sources (official websites, hub directories)",CC-BY 4.0 (recommended),
KeoLID Innovation Hub,Innovation / Tech Hub,Active (Verified),,Dakar,Senegal,14.716677,-17.4676861,https://keolid.org/,info@keolid.org,,https://keolid.org/contact/,2025-12-29,"Public web sources (official websites, hub directories)",CC-BY 4.0 (recommended),
La Plage Factory,Innovation / Tech Hub,Active (Verified),,Dakar,Senegal,14.7407594,-17.5204817,https://laplagefactory.com/,contact@laplagefactory.com,,https://laplagefactory.com/,2025-12-29,"Public web sources (official websites, hub directories)",CC-BY 4.0 (recommended),
Trustee Sas,Innovation / Tech Hub,Active (Verified),,Dakar,Senegal,14.716677,-17.4676861,https://trusteesas.sn/,contact@trusteesas.sn,,https://trusteesas.sn/,2025-12-29,"Public web sources (official websites, hub directories)",CC-BY 4.0 (recommended),
Wenak Labs,University / Research Hub,Active (Verified),,Dakar,Senegal,14.7278799,-17.4279494,https://wenaklabs.com/,info@wenaklabs.com,,https://wenaklabs.com/contact/,2025-12-29,"Public web sources (official websites, hub directories)",CC-BY 4.0 (recommended),
Yeesal Agri Hub,Innovation / Tech Hub,Active (Verified),,Dakar,Senegal,14.716677,-17.4676861,https://yeesal.com/,contact@yeesal.com,,https://yeesal.com/,2025-12-29,"Public web sources (official websites, hub directories)",CC-BY 4.0 (recommended),
Clintonel Innovation Centre (CIC),Innovation / Tech Hub,Active (Verified),,Freetown,Sierra Leone,8.487080299999999,-13.2354918,https://clintonel.org/,info@clintonel.org,,https://clintonel.org/contact/,2025-12-29,"Public web sources (official websites, hub directories)",CC-BY 4.0 (recommended),
Unimak Workflow Innovation Hub (University of Makeni),University / Research Hub,Active (Verified),University of Makeni,Makeni,Sierra Leone,8.872020899999999,-12.0375963,https://www.unimak.edu.sl/,info@unimak.edu.sl,,https://www.unimak.edu.sl/,2025-12-29,"Public web sources (official websites, hub directories)",CC-BY 4.0 (recommended),
Ehub,Innovation / Tech Hub,Active (Verified),,Mogadishu,Somalia,2.0372133,45.3379172,https://ehub.so/,info@ehub.so,,https://ehub.so/,2025-12-29,"Public web sources (official websites, hub directories)",CC-BY 4.0 (recommended),
SIMAD iLab (SIMAD University),University / Research Hub,Active (Verified),SIMAD University Campus,Mogadishu,Somalia,2.0324174,45.3073542,https://simad.edu.so/,info@simad.edu.so,,https://simad.edu.so/,2025-12-29,"Public web sources (official websites, hub directories)",CC-BY 4.0 (recommended),
Barkulan Coworking and Innovation Hub,Coworking Space,Active (Verified),,Hargeisa,Somaliland,9.5612168,44.0669251,https://barkulan.org/,info@barkulan.org,,https://barkulan.org/contact/,2025-12-29,"Public web sources (official websites, hub directories)",CC-BY 4.0 (recommended),
Hargeisa hub (HarHub),Innovation / Tech Hub,Active (Verified),,Hargeisa,Somaliland,9.5525486,44.0468355,https://harhub.org/,info@harhub.org,,https://harhub.org/contact/,2025-12-29,"Public web sources (official websites, hub directories)",CC-BY 4.0 (recommended),
Harhub,Innovation / Tech Hub,Active (Verified),,Hargeisa,Somaliland,9.5525486,44.0468355,https://harhub.org/,info@harhub.org,,https://harhub.org/,2025-12-29,"Public web sources (official websites, hub directories)",CC-BY 4.0 (recommended),
Somaliland Innovation Zone (SIZ),Innovation / Tech Hub,Active (Verified),,Hargeisa,Somaliland,9.5654126,44.0487098,https://somalilandinnovationzone.com/,info@somalilandinnovationzone.com,,https://somalilandinnovationzone.com/,2025-12-29,"Public web sources (official websites, hub directories)",CC-BY 4.0 (recommended),
Circular Innovation Hub,Innovation / Tech Hub,Active (Verified),,Cape Town,South Africa,-34.0864657,18.827655,https://circularinnovationhub.org/,info@circularinnovationhub.org,,https://circularinnovationhub.org/contact/,2025-12-29,"Public web sources (official websites, hub directories)",CC-BY 4.0 (recommended),
Eight2Five Innovation Hub,Innovation / Tech Hub,Active (Verified),"Dock Road, V&A Waterfront",Cape Town,South Africa,-33.9107029,18.4191167,https://www.eight2five.co.za/,info@eight2five.co.za,27214610328.0,https://www.eight2five.co.za/contact/,2025-12-29,"Public web sources (official websites, hub directories)",CC-BY 4.0 (recommended),
Enroot,Innovation / Tech Hub,Active (Verified),,Cape Town,South Africa,-34.0871481,18.4886538,https://enroot.org.za/,info@enroot.org.za,,https://enroot.org.za/contact/,2025-12-29,"Public web sources (official websites, hub directories)",CC-BY 4.0 (recommended),
Founder Square Ventures,Accelerator,Active (Verified),,Cape Town,South Africa,-34.0881687,18.4858558,https://foundersquare.africa/,info@foundersquare.africa,,https://foundersquare.africa/contact/,2025-12-29,"Public web sources (official websites, hub directories)",CC-BY 4.0 (recommended),
Impacc Social Ventures,Accelerator,Active (Verified),,Cape Town,South Africa,-33.7040692,18.4437728,https://impacc.co/,info@impacc.co,,https://impacc.co/contact/,2025-12-29,"Public web sources (official websites, hub directories)",CC-BY 4.0 (recommended),
Injini EdTech,Innovation / Tech Hub,Active (Verified),,Cape Town,South Africa,-33.9366522,18.4559888,https://injini.org.za/,info@injini.org.za,,https://injini.org.za/,2025-12-29,"Public web sources (official websites, hub directories)",CC-BY 4.0 (recommended),
Ocean Innovation Centre,Innovation / Tech Hub,Active (Verified),,Cape Town,South Africa,-33.9353223,18.4597421,https://oceaninnovation.africa/,info@oceaninnovation.africa,,https://oceaninnovation.africa/,2025-12-29,"Public web sources (official websites, hub directories)",CC-BY 4.0 (recommended),
OceanHub Africa,Innovation / Tech Hub,Active (Verified),"V&A Waterfront, Breakwater Campus",Cape Town,South Africa,-33.9083603,18.4172728,https://oceanhub.africa/,hello@oceanhub.africa,,https://oceanhub.africa/contact/,2025-12-29,"Public web sources (official websites, hub directories)",CC-BY 4.0 (recommended),
RLabs,University / Research Hub,Active (Verified),,Cape Town,South Africa,-34.0529831,18.6028624,https://rlabs.org/,info@rlabs.org,,https://rlabs.org/,2025-12-29,"Public web sources (official websites, hub directories)",CC-BY 4.0 (recommended),
Silulo Foundation,NGO / Foundation,Active (Verified),"Silulo Ulutho Technologies, Khayelitsha",Cape Town,South Africa,-34.0368417,18.6585129,https://www.silulofoundation.org/,info@silulofoundation.org,27213610000.0,https://www.silulofoundation.org/contact-us/,2025-12-29,"Public web sources (official websites, hub directories)",CC-BY 4.0 (recommended),
Tentmaker,Makerspace / FabLab,Active (Verified),,Cape Town,South Africa,-33.922087,18.4231418,https://tentmaker.global/,info@tentmaker.global,,https://tentmaker.global/,2025-12-29,"Public web sources (official websites, hub directories)",CC-BY 4.0 (recommended),
The Maker Club,Makerspace / FabLab,Active (Verified),,Cape Town,South Africa,-34.1359164,18.4292819,https://themakerclub.org/,info@themakerclub.org,,https://themakerclub.org/,2025-12-29,"Public web sources (official websites, hub directories)",CC-BY 4.0 (recommended),
UWC Future-Innovation Lab,University / Research Hub,Active (Verified),University of the Western Cape Campus,Cape Town,South Africa,-33.9335203,18.627958,https://www.uwc.ac.za/,info@uwc.ac.za,27219593000.0,https://www.uwc.ac.za/,2025-12-29,"Public web sources (official websites, hub directories)",CC-BY 4.0 (recommended),
University of Cape Town financial innovation hub,University / Research Hub,Active (Verified),"Breakwater Campus, Portswood Road, V&A Waterfront",Cape Town,South Africa,-33.957062,18.4658381,https://www.gsb.uct.ac.za/financial-innovation,gsbinfo@uct.ac.za,27214061000.0,https://www.gsb.uct.ac.za/,2025-12-29,"Public web sources (official websites, hub directories)",CC-BY 4.0 (recommended),
Wired Startups,Innovation / Tech Hub,Active (Verified),,Cape Town,South Africa,-34.0756899,18.8432656,https://wiredstartups.com/,info@wiredstartups.com,,https://wiredstartups.com/,2025-12-29,"Public web sources (official websites, hub directories)",CC-BY 4.0 (recommended),
Innovation Co-Lab Durban,University / Research Hub,Active (Verified),"Innovation Hub, Durban University of Technology",Durban,South Africa,-29.8496477,31.01027929999999,https://innovationcolab.org/,info@innovationcolab.org,,https://innovationcolab.org/,2025-12-29,"Public web sources (official websites, hub directories)",CC-BY 4.0 (recommended),
Garden Route Innovation and Technology Hub,Innovation / Tech Hub,Active (Verified),,George,South Africa,-33.9717388,22.4444244,https://grithub.co.za/,info@grithub.co.za,,https://grithub.co.za/contact/,2025-12-29,"Public web sources (official websites, hub directories)",CC-BY 4.0 (recommended),
Graca Machel Trust – Women Creating Wealth,Innovation / Tech Hub,Active (Verified),"2nd Floor, The Business Place, Woodmead",Johannesburg,South Africa,-26.1183731,28.0317815,https://www.gracamacheltrust.org/,info@gracamacheltrust.org,27116568800.0,https://www.gracamacheltrust.org/contact-us/,2025-12-29,"Public web sources (official websites, hub directories)",CC-BY 4.0 (recommended),
JoziHub,Innovation / Tech Hub,Active (Verified),,Johannesburg,South Africa,-26.1855489,28.019108,https://jozihub.org/,info@jozihub.org,,https://jozihub.org/,2025-12-29,"Public web sources (official websites, hub directories)",CC-BY 4.0 (recommended),
Opolo Global Innovation,Innovation / Tech Hub,Active (Verified),,Johannesburg,South Africa,-26.205647,28.0337185,https://opologlobal.com/,info@opologlobal.com,,https://opologlobal.com/,2025-12-29,"Public web sources (official websites, hub directories)",CC-BY 4.0 (recommended),
Tshimologong Precinct,Innovation / Tech Hub,Active (Verified),"University of the Witwatersrand, Braamfontein",Johannesburg,South Africa,-26.1945906,28.0318952,https://tshimologong.joburg/,info@tshimologong.joburg,,https://tshimologong.joburg/,2025-12-29,"Public web sources (official websites, hub directories)",CC-BY 4.0 (recommended),
mLab Southern Africa,University / Research Hub,Active (Verified),,Pretoria,South Africa,-25.7486544,28.2686481,https://mlab.co.za/,info@mlab.co.za,,https://mlab.co.za/,2025-12-29,"Public web sources (official websites, hub directories)",CC-BY 4.0 (recommended),
SU LaunchLab (Affiliated to Stellenbosch University),University / Research Hub,Active (Verified),"Stellenbosch University Campus, Banghoek Rd",Stellenbosch,South Africa,-33.9328078,18.864447,https://www.launchlab.co.za/,info@launchlab.co.za,27218082500.0,https://www.launchlab.co.za/contact/,2025-12-29,"Public web sources (official websites, hub directories)",CC-BY 4.0 (recommended),
Junub Open Space,Coworking Space,Active (Verified),,Juba,South Sudan,4.861655799999999,31.5536397,https://junubopenspace.org/,info@junubopenspace.org,,https://junubopenspace.org/,2025-12-29,"Public web sources (official websites, hub directories)",CC-BY 4.0 (recommended),
Impact Hub Khartoum,Innovation / Tech Hub,Active (Verified),,Khartoum,Sudan,15.5793684,32.5678209,https://khartoum.impacthub.net/,khartoum@impacthub.net,,https://khartoum.impacthub.net/,2025-12-29,"Public web sources (official websites, hub directories)",CC-BY 4.0 (recommended),
Smart Lab,University / Research Hub,Active (Verified),,Khartoum,Sudan,15.597431,32.535587,https://smartlab.sd/,info@smartlab.sd,,https://smartlab.sd/,2025-12-29,"Public web sources (official websites, hub directories)",CC-BY 4.0 (recommended),
Ndoto Hub,Innovation / Tech Hub,Active (Verified),,Arusha,Tanzania,-3.3821522,36.7015804,https://ndotohub.or.tz/,info@ndotohub.or.tz,,https://ndotohub.or.tz/,2025-12-29,"Public web sources (official websites, hub directories)",CC-BY 4.0 (recommended),
Twende Social Innovation Centre,Innovation / Tech Hub,Active (Verified),,Arusha,Tanzania,-3.4057342,36.7049724,https://twende.or.tz/,info@twende.or.tz,,https://twende.or.tz/,2025-12-29,"Public web sources (official websites, hub directories)",CC-BY 4.0 (recommended),
AMCET Innovation Hub,Innovation / Tech Hub,Active (Verified),Al-Maktoum College of Engineering and Technology,Dar es Salaam,Tanzania,-6.7810219,39.206987,https://amcet.ac.tz/,info@amcet.ac.tz,,https://amcet.ac.tz/,2025-12-29,"Public web sources (official websites, hub directories)",CC-BY 4.0 (recommended),
AMCET Innovation Hub (Al-Maktoum College of Engineering and Technology – AMCET),University / Research Hub,Active (Verified),"AMCET Campus, Dar es Salaam",Dar es Salaam,Tanzania,-6.7810219,39.206987,https://amcet.ac.tz/,info@amcet.ac.tz,255222700000.0,https://amcet.ac.tz/,2025-12-29,"Public web sources (official websites, hub directories)",CC-BY 4.0 (recommended),
Bongo Tech & Research Labs,University / Research Hub,Active (Verified),,Dar es Salaam,Tanzania,-6.9032199,39.2124339,https://bongotechlabs.or.tz/,info@bongotechlabs.or.tz,,https://bongotechlabs.or.tz/,2025-12-29,"Public web sources (official websites, hub directories)",CC-BY 4.0 (recommended),
Buni Hub,Innovation / Tech Hub,Active (Verified),,Dar es Salaam,Tanzania,-6.774619,39.241261,https://bunihub.or.tz/,info@bunihub.or.tz,,https://bunihub.or.tz/,2025-12-29,"Public web sources (official websites, hub directories)",CC-BY 4.0 (recommended),
Impact Hub Dar es Salaam,Innovation / Tech Hub,Active (Verified),,Dar es Salaam,Tanzania,-6.8165054,39.2894367,https://dar.impacthub.net/,dar@impacthub.net,,https://dar.impacthub.net/contact/,2025-12-29,"Public web sources (official websites, hub directories)",CC-BY 4.0 (recommended),
Kufanya Incubator for International Entrepreneurs,Incubator,Active (Verified),,Dar es Salaam,Tanzania,-6.8165054,39.2894367,https://kufanya.com/,info@kufanya.com,,https://kufanya.com/,2025-12-29,"Public web sources (official websites, hub directories)",CC-BY 4.0 (recommended),
RLabs Tanzania,University / Research Hub,Active (Verified),,Dar es Salaam,Tanzania,-6.8165054,39.2894367,https://rlabs.org/,info@rlabs.org,,https://rlabs.org/locations/,2025-12-29,"Public web sources (official websites, hub directories)",CC-BY 4.0 (recommended),
dLab,University / Research Hub,Active (Verified),University of Dar es Salaam,Dar es Salaam,Tanzania,-6.7791817,39.204323,https://dlab.or.tz/,info@dlab.or.tz,255222410000.0,https://dlab.or.tz/,2025-12-29,"Public web sources (official websites, hub directories)",CC-BY 4.0 (recommended),
eBusiness Incubation Center,Incubator,Active (Verified),,Dar es Salaam,Tanzania,-6.8165054,39.2894367,https://ebusinessincubation.co.tz/,info@ebusinessincubation.co.tz,,https://ebusinessincubation.co.tz/contact/,2025-12-29,"Public web sources (official websites, hub directories)",CC-BY 4.0 (recommended),
Ifakara Innovation Hub (University),University / Research Hub,Active (Verified),Ifakara Health Institute Campus,Ifakara,Tanzania,-8.145628799999999,36.6850993,https://ihi.or.tz/,info@ihi.or.tz,255232000000.0,https://ihi.or.tz/,2025-12-29,"Public web sources (official websites, hub directories)",CC-BY 4.0 (recommended),
Kiota Hub (University of Iringa),University / Research Hub,Active (Verified),University of Iringa Campus,Iringa,Tanzania,-7.741733,35.7246153,https://uoi.ac.tz/,info@uoi.ac.tz,255262345678.0,https://uoi.ac.tz/,2025-12-29,"Public web sources (official websites, hub directories)",CC-BY 4.0 (recommended),
Cube Zanzibar,Innovation / Tech Hub,Active (Verified),,Zanzibar City,Tanzania,-6.1600312,39.1915211,https://cubezanzibar.org/,info@cubezanzibar.org,,https://cubezanzibar.org/contact/,2025-12-29,"Public web sources (official websites, hub directories)",CC-BY 4.0 (recommended),
Zixtech Hub,Innovation / Tech Hub,Active (Verified),,Zanzibar City,Tanzania,-6.165192999999999,39.1989144,https://zixtechhub.co.tz/,info@zixtechhub.co.tz,,https://zixtechhub.co.tz/,2025-12-29,"Public web sources (official websites, hub directories)",CC-BY 4.0 (recommended),
Akewa Acelerateur,Innovation / Tech Hub,Active (Verified),,Lomé,Togo,6.129557699999999,1.2196502,https://akewa.io/,contact@akewa.io,,https://akewa.io/,2025-12-29,"Public web sources (official websites, hub directories)",CC-BY 4.0 (recommended),
Ecolia Labs,University / Research Hub,Active (Verified),,Lomé,Togo,6.129557699999999,1.2196502,https://ecolialabs.com/,info@ecolialabs.com,,https://ecolialabs.com/,2025-12-29,"Public web sources (official websites, hub directories)",CC-BY 4.0 (recommended),
INOVTECH FOUNDATION,NGO / Foundation,Active (Verified),,Lomé,Togo,6.129557699999999,1.2196502,https://inovtechfoundation.org/,info@inovtechfoundation.org,22890000000.0,https://inovtechfoundation.org/contact/,2025-12-29,"Public web sources (official websites, hub directories)",CC-BY 4.0 (recommended),
Iris Hub,Innovation / Tech Hub,Active (Verified),,Lomé,Togo,6.2192655,1.1576954,https://irishub.tg/,contact@irishub.tg,,https://irishub.tg/,2025-12-29,"Public web sources (official websites, hub directories)",CC-BY 4.0 (recommended),
TAOTIC,Innovation / Tech Hub,Active (Verified),,Lomé,Togo,6.129557699999999,1.2196502,https://taotic.tg/,info@taotic.tg,,https://taotic.tg/,2025-12-29,"Public web sources (official websites, hub directories)",CC-BY 4.0 (recommended),
WoeLab,University / Research Hub,Active (Verified),,Lomé,Togo,6.1647228,1.2082729,https://woelab.org/,contact@woelab.org,,https://woelab.org/,2025-12-29,"Public web sources (official websites, hub directories)",CC-BY 4.0 (recommended),
Cozi – Coworking Cafe Djerba,Coworking Space,Active (Verified),,Djerba,Tunisia,33.8860638,10.8556714,https://cozi.tn/,contact@cozi.tn,,https://cozi.tn/,2025-12-29,"Public web sources (official websites, hub directories)",CC-BY 4.0 (recommended),
AYA,Innovation / Tech Hub,Active (Verified),,Tunis,Tunisia,36.8064948,10.1815316,https://aya.org.tn/,contact@aya.org.tn,,https://aya.org.tn/,2025-12-29,"Public web sources (official websites, hub directories)",CC-BY 4.0 (recommended),
Collective Lab (Central University of Tunis / Honoris United Universities),University / Research Hub,Active (Verified),Central University of Tunis,Tunis,Tunisia,36.8064948,10.1815316,https://collectivelab.tn/,info@collectivelab.tn,,https://collectivelab.tn/,2025-12-29,"Public web sources (official websites, hub directories)",CC-BY 4.0 (recommended),
Collective Lab (Central University of Tunis/Honoris United University),University / Research Hub,Active (Verified),Central University of Tunis Campus,Tunis,Tunisia,36.794374,10.1628283,https://collectivelab.tn/,info@collectivelab.tn,,https://collectivelab.tn/contact/,2025-12-29,"Public web sources (official websites, hub directories)",CC-BY 4.0 (recommended),
Eureka Geo,Innovation / Tech Hub,Active (Verified),,Tunis,Tunisia,36.8475219,10.2649906,https://eurekageo.tn/,info@eurekageo.tn,,https://eurekageo.tn/,2025-12-29,"Public web sources (official websites, hub directories)",CC-BY 4.0 (recommended),
Mektoub,Innovation / Tech Hub,Active (Verified),,Tunis,Tunisia,36.8064948,10.1815316,https://mektoub.tn/,contact@mektoub.tn,21600000000.0,https://mektoub.tn/contact/,2025-12-29,"Public web sources (official websites, hub directories)",CC-BY 4.0 (recommended),
Pandora Box,Innovation / Tech Hub,Active (Verified),,Tunis,Tunisia,36.8064948,10.1815316,https://pandorabox.tn/,contact@pandorabox.tn,,https://pandorabox.tn/,2025-12-29,"Public web sources (official websites, hub directories)",CC-BY 4.0 (recommended),
REDSTART TUNISIA,Innovation / Tech Hub,Active (Verified),,Tunis,Tunisia,36.8204675,10.1816262,https://redstart.tn/,contact@redstart.tn,,https://redstart.tn/,2025-12-29,"Public web sources (official websites, hub directories)",CC-BY 4.0 (recommended),
SOW Hub ecosistema d Startup,Innovation / Tech Hub,Active (Verified),,Tunis,Tunisia,36.8064948,10.1815316,https://sowhub.tn/,contact@sowhub.tn,,https://sowhub.tn/,2025-12-29,"Public web sources (official websites, hub directories)",CC-BY 4.0 (recommended),
The Disruptive Lab,University / Research Hub,Active (Verified),,Tunis,Tunisia,36.8064948,10.1815316,https://thedisruptivelab.tn/,contact@thedisruptivelab.tn,,https://thedisruptivelab.tn/,2025-12-29,"Public web sources (official websites, hub directories)",CC-BY 4.0 (recommended),
Wiki Startup,Innovation / Tech Hub,Active (Verified),,Tunis,Tunisia,36.8358513,10.2379462,https://wikistartup.tn/,contact@wikistartup.tn,,https://wikistartup.tn/,2025-12-29,"Public web sources (official websites, hub directories)",CC-BY 4.0 (recommended),
Arua Innovation Clusters,Innovation / Tech Hub,Active (Verified),,Arua,Uganda,2.9971942,30.9261868,https://aruainnovationclusters.org/,info@aruainnovationclusters.org,,https://aruainnovationclusters.org/contact/,2025-12-29,"Public web sources (official websites, hub directories)",CC-BY 4.0 (recommended),
Eastern Tech Hub,Innovation / Tech Hub,Active (Verified),,Jinja,Uganda,0.4478565999999999,33.2026122,https://easterntechhub.org/,info@easterntechhub.org,,https://easterntechhub.org/contact/,2025-12-29,"Public web sources (official websites, hub directories)",CC-BY 4.0 (recommended),
AfriFORTIFIED HUB,Innovation / Tech Hub,Active (Verified),,Kampala,Uganda,0.3151692,32.5816313,https://afrifortified.org/,info@afrifortified.org,,https://afrifortified.org/contact/,2025-12-29,"Public web sources (official websites, hub directories)",CC-BY 4.0 (recommended),
Aiivon Innovation Hub,Innovation / Tech Hub,Active (Verified),,Kampala,Uganda,0.3151692,32.5816313,https://aiivon.org/,info@aiivon.org,,https://aiivon.org/,2025-12-29,"Public web sources (official websites, hub directories)",CC-BY 4.0 (recommended),
Design Hub Kampala,Innovation / Tech Hub,Active (Verified),,Kampala,Uganda,0.31697,32.6126064,https://designhubkampala.com/,info@designhubkampala.com,,https://designhubkampala.com/,2025-12-29,"Public web sources (official websites, hub directories)",CC-BY 4.0 (recommended),
Grassroots Hub,Innovation / Tech Hub,Active (Verified),,Kampala,Uganda,0.3466354,32.5709946,https://grassrootshub.org/,info@grassrootshub.org,,https://grassrootshub.org/,2025-12-29,"Public web sources (official websites, hub directories)",CC-BY 4.0 (recommended),
Hamplus Technologies Int’l (Hamplus Hub),Innovation / Tech Hub,Active (Verified),,Kampala,Uganda,0.3151692,32.5816313,https://hamplus.co/,info@hamplus.co,,https://hamplus.co/contact/,2025-12-29,"Public web sources (official websites, hub directories)",CC-BY 4.0 (recommended),
Hive Colab,University / Research Hub,Active (Verified),,Kampala,Uganda,0.3418314,32.5944272,https://hivecolab.com/,info@hivecolab.com,,https://hivecolab.com/,2025-12-29,"Public web sources (official websites, hub directories)",CC-BY 4.0 (recommended),
Innovate Ventures,Accelerator,Active (Verified),,Kampala,Uganda,0.3323051,32.5689351,https://innovateventures.org/,info@innovateventures.org,,https://innovateventures.org/,2025-12-29,"Public web sources (official websites, hub directories)",CC-BY 4.0 (recommended),
Makerere Innovation and Incubation Centre,Incubator,Active (Verified),Makerere University Campus,Kampala,Uganda,0.3323261,32.5704417,https://miic.mak.ac.ug/,miic@mak.ac.ug,256414532000.0,https://miic.mak.ac.ug/,2025-12-29,"Public web sources (official websites, hub directories)",CC-BY 4.0 (recommended),
Noni Hub,Innovation / Tech Hub,Active (Verified),,Kampala,Uganda,0.3151692,32.5816313,https://nonihub.org/,contact@nonihub.org,,https://nonihub.org/contact/,2025-12-29,"Public web sources (official websites, hub directories)",CC-BY 4.0 (recommended),
Nxtgen Labs,University / Research Hub,Active (Verified),,Kampala,Uganda,0.3194777,32.5717403,https://nxtgenlabs.africa/,hello@nxtgenlabs.africa,,https://nxtgenlabs.africa/about/,2025-12-29,"Public web sources (official websites, hub directories)",CC-BY 4.0 (recommended),
Outbox,Innovation / Tech Hub,Active (Verified),,Kampala,Uganda,0.3384602,32.625801,https://outbox.co.ug/,hello@outbox.co.ug,,https://outbox.co.ug/,2025-12-29,"Public web sources (official websites, hub directories)",CC-BY 4.0 (recommended),
Robotech Lab,University / Research Hub,Active (Verified),,Kampala,Uganda,0.3403238,32.5678193,https://robotechlab.org/,info@robotechlab.org,,https://robotechlab.org/,2025-12-29,"Public web sources (official websites, hub directories)",CC-BY 4.0 (recommended),
The Innovation Village Kampala,Innovation / Tech Hub,Active (Verified),,Kampala,Uganda,0.3166061,32.6115053,https://innovationvillage.co.ug/,info@innovationvillage.co.ug,,https://innovationvillage.co.ug/,2025-12-29,"Public web sources (official websites, hub directories)",CC-BY 4.0 (recommended),
iRise Hub,Innovation / Tech Hub,Active (Verified),,Mbarara,Uganda,-0.6077840999999999,30.6609479,https://irisehub.com/,info@irisehub.com,,https://irisehub.com/contact/,2025-12-29,"Public web sources (official websites, hub directories)",CC-BY 4.0 (recommended),
BongoHive,NGO / Foundation,Active (Verified),,Lusaka,Zambia,-15.4099607,28.321238,https://bongohive.co.zm/,info@bongohive.co.zm,,https://bongohive.co.zm/contact/,2025-12-29,"Public web sources (official websites, hub directories)",CC-BY 4.0 (recommended),
CHub,Innovation / Tech Hub,Active (Verified),,Lusaka,Zambia,-15.4154677,28.2773267,https://chubzambia.org/,info@chubzambia.org,,https://chubzambia.org/contact/,2025-12-29,"Public web sources (official websites, hub directories)",CC-BY 4.0 (recommended),
E-hub Zambia,Innovation / Tech Hub,Active (Verified),,Lusaka,Zambia,-15.4154677,28.2773267,https://ehubzambia.org/,info@ehubzambia.org,,https://ehubzambia.org/contact/,2025-12-29,"Public web sources (official websites, hub directories)",CC-BY 4.0 (recommended),
Grazac,Innovation / Tech Hub,Active (Verified),,Lusaka,Zambia,-15.4154677,28.2773267,https://grazac.org/,contact@grazac.org,,https://grazac.org/,2025-12-29,"Public web sources (official websites, hub directories)",CC-BY 4.0 (recommended),
Innov8 Hub,Innovation / Tech Hub,Active (Verified),,Lusaka,Zambia,-15.4154677,28.2773267,https://innov8hub.org/,info@innov8hub.org,,https://innov8hub.org/contact/,2025-12-29,"Public web sources (official websites, hub directories)",CC-BY 4.0 (recommended),
Mentors Innovation Hub,Innovation / Tech Hub,Active (Verified),,Lusaka,Zambia,-15.4154677,28.2773267,https://mentorshub.org/,info@mentorshub.org,,https://mentorshub.org/contact/,2025-12-29,"Public web sources (official websites, hub directories)",CC-BY 4.0 (recommended),
Shinga Entrepreneurship and Learning Hub,Innovation / Tech Hub,Active (Verified),,Lusaka,Zambia,-15.4154677,28.2773267,https://shingahub.org/,info@shingahub.org,,https://shingahub.org/,2025-12-29,"Public web sources (official websites, hub directories)",CC-BY 4.0 (recommended),
The Nest Innovation Technology Park Ltd,Innovation / Tech Hub,Active (Verified),,Lusaka,Zambia,-15.4154677,28.2773267,https://thenestzambia.com/,info@thenestzambia.com,,https://thenestzambia.com/,2025-12-29,"Public web sources (official websites, hub directories)",CC-BY 4.0 (recommended),
WECREATE Zambia,Innovation / Tech Hub,Active (Verified),,Lusaka,Zambia,-15.4176047,28.3447094,https://wecreatezambia.org/,info@wecreatezambia.org,,https://wecreatezambia.org/,2025-12-29,"Public web sources (official websites, hub directories)",CC-BY 4.0 (recommended),
Startup Bulawayo,Innovation / Tech Hub,Active (Verified),,Bulawayo,Zimbabwe,-20.1457125,28.5873388,https://startupbulawayo.org/,info@startupbulawayo.org,,https://startupbulawayo.org/contact/,2025-12-29,"Public web sources (official websites, hub directories)",CC-BY 4.0 (recommended),
Boris Bison Youth Empowerment Business Incubator (BBYEBI),Incubator,Active (Verified),,Harare,Zimbabwe,-17.8830907,30.9610825,https://bbyebi.org/,info@bbyebi.org,,https://bbyebi.org/contact/,2025-12-29,"Public web sources (official websites, hub directories)",CC-BY 4.0 (recommended),
Impact Hub Harare,Innovation / Tech Hub,Active (Verified),,Harare,Zimbabwe,-17.816029,31.0615189,https://harare.impacthub.net/,harare@impacthub.net,,https://harare.impacthub.net/contact/,2025-12-29,"Public web sources (official websites, hub directories)",CC-BY 4.0 (recommended),
Midtown Tech Hub,Innovation / Tech Hub,Active (Verified),,Harare,Zimbabwe,-17.8394116,31.0429388,https://midtowntechhub.co.zw/,info@midtowntechhub.co.zw,263772345678.0,https://midtowntechhub.co.zw/contact/,2025-12-29,"Public web sources (official websites, hub directories)",CC-BY 4.0 (recommended),
Tech Hub Harare,Innovation / Tech Hub,Active (Verified),,Harare,Zimbabwe,-17.8244051,31.0494778,https://techhub.co.zw/,info@techhub.co.zw,,https://techhub.co.zw/,2025-12-29,"Public web sources (official websites, hub directories)",CC-BY 4.0 (recommended),
Zimbabwe Young Entrepreneurs Association,Innovation / Tech Hub,Active (Verified),,Harare,Zimbabwe,-17.8171389,31.0554404,https://zyea.org.zw/,info@zyea.org.zw,,https://zyea.org.zw/contact-us/,2025-12-29,"Public web sources (official websites, hub directories)",CC-BY 4.0 (recommended),
